{"type":"FeatureCollection","features":[{"type":"Feature","properties":{"dpto":"Antioquia","label_lon":-75.59592,"label_lat":6.91672},"geometry":{"type":"MultiPolygon","coordinates":[[[[-76.3073,8.6193],[-76.2173,8.5716],[-76.1965,8.4184],[-76.2541,8.3695],[-76.3929,8.1333],[-76.4228,7.9734],[-76.4902,7.8351],[-76.5189,7.6579],[-76.4773,7.5352],[-76.4046,7.4113],[-76.3469,7.3533],[-76.0304,7.3531],[-75.8414,7.3887],[-75.7008,7.5834],[-75.6496,7.7131],[-75.5851,7.7337],[-75.5453,7.7081],[-75.5032,7.7073],[-75.4698,7.7759],[-75.4739,7.8077],[-75.3465,7.8568],[-75.3338,7.918],[-75.2607,7.9691],[-75.229,8.0244],[-74.9586,8.0505],[-74.8339,8.1853],[-74.5389,7.9049],[-74.5342,7.7968],[-74.4771,7.6972],[-74.571,7.6035],[-74.6141,7.4287],[-74.5069,7.3173],[-74.4711,7.331],[-74.3894,7.471],[-74.3628,7.3837],[-74.4262,7.3106],[-74.4272,7.1702],[-74.3724,7.0424],[-74.3718,7.0008],[-74.3164,6.9792],[-74.2484,6.9852],[-73.954,7.2636],[-73.9401,7.0839],[-73.8962,6.9924],[-73.9532,6.9291],[-74.0086,6.908],[-74.1134,6.8241],[-74.1457,6.7572],[-74.1854,6.7227],[-74.4182,6.5758],[-74.4442,6.5309],[-74.3945,6.3869],[-74.4475,6.3669],[-74.6019,6.1977],[-74.6301,6.0927],[-74.5897,6.0584],[-74.6058,6.0146],[-74.5874,5.9799],[-74.626,5.9569],[-74.6092,5.8887],[-74.6605,5.8566],[-74.6743,5.7584],[-74.7227,5.7598],[-74.778,5.6803],[-74.8535,5.6962],[-74.8772,5.7339],[-75.0167,5.7056],[-75.0351,5.6744],[-75.1158,5.6482],[-75.1244,5.5807],[-75.167,5.5312],[-75.235,5.5124],[-75.2546,5.4732],[-75.288,5.4583],[-75.344,5.4643],[-75.374,5.595],[-75.4092,5.6055],[-75.3936,5.6534],[-75.4259,5.6836],[-75.5078,5.6602],[-75.5666,5.7136],[-75.6185,5.7266],[-75.6143,5.5151],[-75.7123,5.504],[-75.7723,5.525],[-75.8409,5.5143],[-75.8962,5.4718],[-76.0173,5.4718],[-76.0467,5.4915],[-76.0698,5.5725],[-76.1327,5.6507],[-76.1287,5.746],[-76.1598,5.8057],[-76.1317,5.9748],[-76.2193,5.9936],[-76.2441,6.0203],[-76.2632,6.1867],[-76.6056,6.1564],[-76.7166,6.1688],[-76.7278,6.2374],[-76.7575,6.2523],[-76.7519,6.2788],[-76.7802,6.2862],[-76.7928,6.3173],[-76.7751,6.3703],[-76.79,6.3772],[-76.7691,6.3888],[-76.7983,6.4246],[-76.7668,6.4371],[-76.7997,6.4464],[-76.7719,6.4822],[-76.8072,6.5105],[-76.8248,6.4901],[-76.823,6.5254],[-76.8457,6.5244],[-76.8685,6.573],[-76.8991,6.5748],[-76.8949,6.6073],[-76.8624,6.6231],[-76.9093,6.6282],[-76.8982,6.6668],[-76.9372,6.6519],[-76.9405,6.6868],[-76.9688,6.6844],[-76.9381,6.7151],[-76.9688,6.7416],[-76.9758,6.8136],[-76.9372,6.8145],[-76.9186,6.8486],[-76.8397,6.8314],[-76.8216,6.8407],[-76.8327,6.8616],[-76.7951,6.8718],[-76.8037,6.9516],[-76.8317,6.9586],[-76.8344,7.0094],[-76.7059,7.0261],[-76.556,6.9706],[-76.5433,7.0601],[-76.503,7.1402],[-76.5423,7.2542],[-76.5871,7.3032],[-76.7202,7.3866],[-76.8042,7.5767],[-76.8972,7.5889],[-76.9838,7.6272],[-77.1017,7.7406],[-77.149,7.8222],[-77.0396,7.9102],[-77.0217,8.006],[-76.9636,8.0705],[-76.9942,8.2785],[-76.9735,8.2593],[-76.985,8.2213],[-76.9469,8.1732],[-76.967,8.1634],[-76.9532,8.1322],[-76.9654,8.1112],[-76.9497,8.1004],[-76.9169,8.1384],[-76.8668,8.1434],[-76.9094,8.1025],[-76.8737,8.1157],[-76.8569,8.1012],[-76.8783,8.092],[-76.8563,8.0619],[-76.8863,8.0666],[-76.8707,8.0336],[-76.9192,8.0494],[-76.9451,8.0386],[-76.9375,7.9334],[-76.8793,7.9176],[-76.8136,7.9254],[-76.7686,7.9396],[-76.7554,7.9719],[-76.7549,8.1672],[-76.7896,8.2944],[-76.7729,8.3763],[-76.8428,8.5083],[-76.9258,8.5508],[-76.9477,8.5388],[-76.9483,8.5642],[-76.8895,8.6321],[-76.6987,8.6816],[-76.6452,8.742],[-76.4971,8.8234],[-76.4585,8.8672],[-76.4694,8.8839],[-76.4516,8.8873],[-76.3991,8.8334],[-76.3494,8.653],[-76.3073,8.6193]]]]}},{"type":"Feature","properties":{"dpto":"Atlantico","label_lon":-74.98383,"label_lat":10.66139},"geometry":{"type":"MultiPolygon","coordinates":[[[[-74.8706,10.3612],[-74.9127,10.2567],[-74.9576,10.2749],[-75.0343,10.3549],[-75.1508,10.4033],[-75.2615,10.4945],[-75.2806,10.5962],[-75.249,10.7134],[-75.2571,10.7844],[-75.0698,10.8847],[-74.8589,11.0779],[-74.7747,10.9702],[-74.7724,10.9228],[-74.7314,10.8828],[-74.7504,10.7893],[-74.7468,10.549],[-74.813,10.4764],[-74.8706,10.3612]]]]}},{"type":"Feature","properties":{"dpto":"Santafe De Bogota D.C","label_lon":-74.21466,"label_lat":4.28972},"geometry":{"type":"MultiPolygon","coordinates":[[[[-74.0229,4.7951],[-74.0257,4.6536],[-74.0436,4.6306],[-74.0101,4.6229],[-74.0257,4.5514],[-74.1351,4.4011],[-74.1212,4.3473],[-74.1535,4.2625],[-74.1459,4.177],[-74.1828,4.1321],[-74.2196,3.9994],[-74.3273,3.8681],[-74.3296,3.8202],[-74.4172,3.727],[-74.4379,3.6757],[-74.4978,3.6546],[-74.5169,3.6656],[-74.3844,3.8817],[-74.3821,3.9487],[-74.4116,4.0418],[-74.3834,4.0832],[-74.3148,4.0876],[-74.2681,4.1122],[-74.221,4.3448],[-74.2394,4.3819],[-74.1957,4.5145],[-74.2298,4.6261],[-74.1929,4.6433],[-74.1941,4.6786],[-74.0961,4.815],[-74.0229,4.7951]]]]}},{"type":"Feature","properties":{"dpto":"Bolivar","label_lon":-74.51831,"label_lat":8.71964},"geometry":{"type":"MultiPolygon","coordinates":[[[[-75.1595,10.4236],[-75.1508,10.4033],[-75.0343,10.3549],[-74.9576,10.2749],[-74.9127,10.2567],[-74.9482,10.1197],[-74.8612,10.0991],[-74.7963,10.0237],[-74.7963,9.9981],[-74.8564,9.9574],[-74.8917,9.9067],[-74.823,9.7614],[-74.8466,9.691],[-74.7774,9.6006],[-74.8108,9.5418],[-74.809,9.4286],[-74.6798,9.3975],[-74.5339,9.2236],[-74.4607,9.2435],[-74.4249,9.1919],[-74.3638,9.209],[-74.3212,9.188],[-74.309,9.173],[-74.3229,9.147],[-74.2635,9.1398],[-74.196,9.0598],[-74.1476,9.0325],[-74.1504,9.0094],[-74.0951,9.0017],[-74.053,9.0188],[-74.0201,8.9794],[-73.8772,8.9568],[-73.8864,8.9055],[-73.8713,8.8552],[-73.8177,8.7787],[-73.8435,8.6176],[-73.7748,8.4406],[-73.769,8.2811],[-73.773,8.2321],[-73.8093,8.1768],[-73.8006,8.1305],[-73.8841,8.0627],[-73.8916,8.0281],[-73.8246,7.7604],[-73.8441,7.6184],[-73.8954,7.5071],[-73.934,7.4709],[-73.927,7.3807],[-73.954,7.2636],[-74.2484,6.9852],[-74.3164,6.9792],[-74.3718,7.0008],[-74.3724,7.0424],[-74.4272,7.1702],[-74.4262,7.3106],[-74.3628,7.3837],[-74.3894,7.471],[-74.4711,7.331],[-74.5069,7.3173],[-74.6141,7.4287],[-74.571,7.6035],[-74.4771,7.6972],[-74.5342,7.7968],[-74.5389,7.9049],[-74.8365,8.1949],[-74.7881,8.2144],[-74.7847,8.2392],[-74.7334,8.2765],[-74.6757,8.2803],[-74.6308,8.3148],[-74.621,8.3708],[-74.5876,8.362],[-74.5588,8.4173],[-74.6258,8.7018],[-74.5751,8.7709],[-74.5913,8.8403],[-74.6963,8.9874],[-74.7995,9.0289],[-74.8434,9.0718],[-74.9172,9.2121],[-74.93,9.4095],[-75.0021,9.5132],[-75.0431,9.548],[-75.1215,9.5738],[-75.227,9.6689],[-75.3291,9.6763],[-75.3642,9.6643],[-75.3694,9.6199],[-75.3867,9.6303],[-75.3879,9.6881],[-75.3412,9.7693],[-75.3378,9.8537],[-75.4382,9.887],[-75.4791,9.8785],[-75.4786,9.9946],[-75.5259,10.041],[-75.5069,10.1166],[-75.553,10.0868],[-75.5916,10.0967],[-75.5968,10.1199],[-75.5714,10.1128],[-75.5605,10.1428],[-75.5179,10.1548],[-75.5461,10.1936],[-75.5312,10.2345],[-75.7006,10.1238],[-75.6349,10.1969],[-75.6044,10.2891],[-75.5761,10.263],[-75.5249,10.2929],[-75.5318,10.3616],[-75.571,10.3959],[-75.5157,10.4771],[-75.5013,10.4204],[-75.4852,10.4371],[-75.5227,10.5614],[-75.4662,10.5843],[-75.4657,10.6138],[-75.4069,10.6655],[-75.2934,10.7182],[-75.2698,10.7839],[-75.2571,10.7844],[-75.249,10.7134],[-75.2806,10.5962],[-75.265,10.4997],[-75.1595,10.4236]]]]}},{"type":"Feature","properties":{"dpto":"Boyaca","label_lon":-73.1237,"label_lat":5.75993},"geometry":{"type":"MultiPolygon","coordinates":[[[[-72.213,7.0275],[-72.1081,7.0225],[-72.0337,6.9829],[-71.9887,6.9798],[-72.0037,6.8984],[-72.128,6.6327],[-72.1654,6.4734],[-72.2311,6.413],[-72.317,6.4157],[-72.3166,6.3531],[-72.3723,6.3183],[-72.4224,6.2437],[-72.4339,6.1695],[-72.4027,6.0937],[-72.36,6.0543],[-72.4095,5.8916],[-72.4752,5.8289],[-72.3368,5.7636],[-72.2528,5.6601],[-72.3056,5.6237],[-72.3268,5.4713],[-72.3545,5.4651],[-72.4208,5.5428],[-72.5383,5.4127],[-72.5925,5.3783],[-72.608,5.3396],[-72.668,5.3179],[-72.7094,5.2361],[-72.8236,5.3429],[-72.9717,5.2101],[-72.9584,5.1811],[-72.9861,5.1142],[-72.9336,5.0626],[-72.9301,5.0216],[-73.0471,4.9522],[-73.0989,4.7785],[-73.0781,4.7143],[-73.0988,4.7121],[-73.1288,4.6493],[-73.1933,4.6426],[-73.2562,4.6654],[-73.2631,4.7076],[-73.3346,4.7108],[-73.3548,4.7542],[-73.4021,4.7786],[-73.3998,4.8196],[-73.4246,4.8567],[-73.5664,4.8862],[-73.5101,5.0927],[-73.5591,5.1998],[-73.5638,5.2512],[-73.5966,5.2687],[-73.6416,5.3434],[-73.6359,5.3815],[-73.6924,5.4418],[-73.8264,5.4879],[-73.8164,5.5792],[-73.9155,5.5115],[-73.9737,5.4066],[-74.055,5.3532],[-74.104,5.3863],[-74.1386,5.4437],[-74.2435,5.4614],[-74.292,5.498],[-74.3462,5.6121],[-74.3053,5.6708],[-74.3544,5.8206],[-74.4685,5.7454],[-74.5423,5.7717],[-74.631,5.7369],[-74.6743,5.7584],[-74.6605,5.8566],[-74.6092,5.8887],[-74.626,5.9569],[-74.5874,5.9799],[-74.6058,6.0146],[-74.5897,6.0584],[-74.6243,6.0794],[-74.6295,6.11],[-74.6019,6.1977],[-74.5558,6.2547],[-74.5056,6.1921],[-74.4641,6.0567],[-74.3891,6.0224],[-74.3211,6.0579],[-74.2923,6.0497],[-74.2911,5.9417],[-74.2611,5.9207],[-74.2506,5.8358],[-74.2028,5.8812],[-74.1186,5.8398],[-74.1071,5.7994],[-74.0402,5.7898],[-74.0056,5.725],[-73.9139,5.7206],[-73.9082,5.7067],[-73.8822,5.7297],[-73.767,5.7615],[-73.7156,5.7515],[-73.6764,5.7057],[-73.6591,5.7126],[-73.6372,5.7437],[-73.6252,5.8401],[-73.6304,5.9464],[-73.5331,6.0944],[-73.5135,6.0897],[-73.4408,6.0455],[-73.4028,5.9685],[-73.4511,5.8757],[-73.4978,5.8453],[-73.4297,5.7405],[-73.3877,5.8241],[-73.3024,5.8509],[-73.2367,5.9771],[-73.0892,5.9511],[-73.0131,5.975],[-72.9797,6.0326],[-72.789,6.2311],[-72.7568,6.4233],[-72.8278,6.5108],[-72.833,6.5449],[-72.8019,6.5668],[-72.7488,6.5221],[-72.6853,6.4126],[-72.6433,6.4194],[-72.5678,6.4705],[-72.5701,6.5508],[-72.5235,6.6424],[-72.5311,6.8943],[-72.4233,6.8574],[-72.3709,6.8873],[-72.3138,6.9887],[-72.2902,6.9926],[-72.2862,6.9643],[-72.27,6.966],[-72.213,7.0275]]]]}},{"type":"Feature","properties":{"dpto":"Caldas","label_lon":-75.33895,"label_lat":5.33189},"geometry":{"type":"MultiPolygon","coordinates":[[[[-74.695,5.7527],[-74.6766,5.7584],[-74.6794,5.6955],[-74.6489,5.6682],[-74.6851,5.5569],[-74.6713,5.5349],[-74.6926,5.4807],[-74.6833,5.4246],[-74.7012,5.4258],[-74.6971,5.3963],[-74.7162,5.3854],[-74.7472,5.2874],[-74.7657,5.273],[-74.8913,5.2915],[-75.0631,5.2708],[-75.1058,5.2404],[-75.1622,5.1453],[-75.2077,5.1536],[-75.2538,5.1278],[-75.3253,5.1269],[-75.361,5.0837],[-75.3448,4.9936],[-75.3638,4.9284],[-75.3546,4.8515],[-75.4133,4.8055],[-75.5189,4.9105],[-75.6388,4.9266],[-75.6786,4.9591],[-75.697,4.9223],[-75.7478,4.9346],[-75.7841,5.0324],[-75.8314,4.9898],[-75.8417,4.9529],[-75.8117,4.9175],[-75.9068,4.9208],[-75.9006,4.9445],[-75.9213,4.955],[-75.9539,5.0339],[-75.9531,5.1128],[-75.9185,5.1248],[-75.8856,5.1125],[-75.8488,5.1961],[-75.8673,5.2736],[-75.8027,5.2756],[-75.7347,5.2522],[-75.6782,5.3259],[-75.7145,5.3319],[-75.7336,5.381],[-75.895,5.3528],[-75.8853,5.4833],[-75.8409,5.5143],[-75.7723,5.525],[-75.7123,5.504],[-75.6143,5.5151],[-75.6251,5.7255],[-75.5666,5.7136],[-75.5078,5.6602],[-75.4415,5.6871],[-75.3965,5.6592],[-75.4092,5.6055],[-75.374,5.595],[-75.3365,5.4568],[-75.288,5.4583],[-75.2546,5.4732],[-75.235,5.5124],[-75.167,5.5312],[-75.1244,5.5807],[-75.1158,5.6482],[-75.0351,5.6744],[-75.0167,5.7056],[-74.8772,5.7339],[-74.8535,5.6962],[-74.778,5.6803],[-74.7227,5.7598],[-74.695,5.7527]]]]}},{"type":"Feature","properties":{"dpto":"Caqueta","label_lon":-73.98618,"label_lat":0.77631},"geometry":{"type":"MultiPolygon","coordinates":[[[[-74.6926,2.4978],[-74.6619,2.2499],[-74.6313,2.17],[-74.6312,2.0378],[-74.5851,1.9307],[-74.4876,1.8154],[-74.2235,1.764],[-74.1405,1.6585],[-74.0932,1.6473],[-74.047,1.6015],[-73.9853,1.5758],[-73.8966,1.5732],[-73.7899,1.6062],[-73.6602,1.6109],[-73.6538,1.4901],[-73.6175,1.4761],[-73.5558,1.3794],[-73.4554,1.2785],[-73.4369,1.1646],[-73.2512,0.9871],[-73.212,0.9817],[-73.1508,0.9069],[-73.0966,0.8882],[-73.0188,0.9104],[-73.0137,0.9404],[-72.9819,0.942],[-72.9468,0.9968],[-72.8909,1.0081],[-72.8857,1.045],[-72.9105,1.074],[-72.8742,1.086],[-72.8985,1.1202],[-72.8437,1.1644],[-72.7924,1.159],[-72.7659,1.1271],[-72.7428,1.1363],[-72.7388,1.164],[-72.6777,1.14],[-72.6696,1.1568],[-72.612,1.0953],[-72.5312,1.0534],[-72.4845,1.0561],[-72.417,0.972],[-72.406,0.8899],[-72.3622,0.9019],[-72.3478,0.8123],[-72.3386,0.8469],[-72.3057,0.8416],[-72.3212,0.7741],[-72.2814,0.741],[-72.2734,0.764],[-72.2451,0.7368],[-72.2393,0.6761],[-72.139,0.7046],[-72.1223,0.6693],[-72.0854,0.6483],[-72.0969,0.6264],[-72.0151,0.6284],[-71.9977,0.6006],[-72.0168,0.5672],[-72.0023,0.529],[-71.9602,0.5109],[-71.9729,0.5398],[-71.9597,0.5467],[-71.9297,0.4807],[-71.9458,0.4554],[-71.9256,0.4414],[-71.9314,0.4247],[-71.8679,0.4048],[-71.8391,0.3712],[-71.8587,0.3643],[-71.8592,0.3152],[-71.8177,0.3151],[-71.8258,0.3365],[-71.7855,0.3311],[-71.8033,0.3098],[-71.7699,0.2935],[-71.7601,0.2617],[-71.7226,0.2881],[-71.7341,0.2477],[-71.6776,0.1833],[-71.6303,0.1959],[-71.651,0.1561],[-71.5807,0.1801],[-71.6026,0.1438],[-71.5479,0.1401],[-71.5559,0.0962],[-71.5173,0.1053],[-71.4827,0.1473],[-71.488,0.1125],[-71.6118,-0.0127],[-71.6279,-0.0514],[-71.7621,-0.16],[-71.8139,-0.2764],[-71.89,-0.3062],[-72.0468,-0.2847],[-72.0699,-0.3083],[-72.0762,-0.3597],[-72.192,-0.4401],[-72.2893,-0.654],[-72.3665,-0.6663],[-72.4438,-0.5863],[-72.5804,-0.7301],[-72.7718,-0.5849],[-72.8594,-0.6417],[-72.9511,-0.646],[-72.9984,-0.5643],[-73.0606,-0.5537],[-73.0923,-0.6015],[-73.0934,-0.6425],[-73.1638,-0.6358],[-73.2231,-0.6575],[-73.3074,-0.5729],[-73.3852,-0.5448],[-73.4198,-0.5574],[-73.5385,-0.5551],[-73.5714,-0.5319],[-73.5962,-0.5445],[-73.5881,-0.5191],[-73.6285,-0.4693],[-73.6792,-0.476],[-73.6781,-0.4448],[-73.7507,-0.4104],[-73.8528,-0.4412],[-74.0569,-0.3647],[-74.0817,-0.3155],[-74.114,-0.3142],[-74.1486,-0.2846],[-74.2131,-0.2964],[-74.2304,-0.2582],[-74.2518,-0.2726],[-74.3152,-0.2423],[-74.2979,-0.1782],[-74.3959,-0.1484],[-74.4478,-0.1666],[-74.4628,-0.1521],[-74.4473,-0.1337],[-74.4807,-0.1191],[-74.506,-0.1687],[-74.5285,-0.1727],[-74.547,-0.135],[-74.5596,-0.161],[-74.6421,-0.1335],[-74.6611,-0.0918],[-74.7009,-0.1032],[-74.6819,-0.06],[-74.7212,0.013],[-74.6935,0.0285],[-74.7356,0.0471],[-74.7298,0.0702],[-74.7091,0.0719],[-74.708,0.1325],[-74.7547,0.1795],[-74.8682,0.1938],[-75.028,0.2505],[-75.0049,0.2938],[-75.0217,0.3701],[-75.0027,0.3879],[-75.0367,0.4562],[-75.1255,0.4623],[-75.1319,0.4866],[-75.1705,0.4602],[-75.2321,0.4657],[-75.2662,0.5386],[-75.238,0.5859],[-75.2836,0.6438],[-75.2905,0.7131],[-75.3568,0.7435],[-75.4392,0.7276],[-75.5436,0.7604],[-75.5644,0.8183],[-75.6376,0.8347],[-75.6417,0.8596],[-75.7592,0.8387],[-75.7892,0.8169],[-75.8025,0.8603],[-75.829,0.8771],[-75.8745,0.8704],[-75.9668,0.9759],[-75.9392,1.0093],[-76.0044,1.0546],[-76.0038,1.0275],[-76.0891,1.0377],[-76.1727,1.1148],[-76.2159,1.0988],[-76.2056,1.1756],[-76.2713,1.1614],[-76.2771,1.2198],[-76.3129,1.2835],[-76.1845,1.5238],[-76.1585,1.5266],[-76.1325,1.4935],[-76.0219,1.5266],[-75.9597,1.5991],[-75.8681,1.6606],[-75.7569,1.8536],[-75.6797,1.9226],[-75.5858,1.9672],[-75.4683,2.1909],[-75.3024,2.3704],[-75.2817,2.4731],[-75.2414,2.5371],[-75.1947,2.4809],[-75.0161,2.6066],[-75.019,2.6499],[-75.0813,2.7443],[-74.9327,2.9349],[-74.9206,2.9441],[-74.8145,2.8975],[-74.6092,2.7788],[-74.6051,2.6678],[-74.673,2.5757],[-74.6926,2.4978]]]]}},{"type":"Feature","properties":{"dpto":"Cauca","label_lon":-76.86962,"label_lat":2.39404},"geometry":{"type":"MultiPolygon","coordinates":[[[[-78.2116,2.9751],[-78.2489,2.9565],[-78.2675,3.0031],[-78.2303,3.045],[-78.1883,3.0543],[-78.2116,2.9751]]],[[[-76.393,3.283],[-76.2598,3.2738],[-76.1653,3.2173],[-76.0971,3.2086],[-76.092,3.0593],[-76.0574,3.0003],[-76.0049,2.9689],[-75.9892,2.7874],[-75.943,2.6694],[-75.8905,2.597],[-75.8478,2.4576],[-75.9285,2.4158],[-75.9573,2.4609],[-76.0409,2.485],[-76.0755,2.4689],[-76.0962,2.4188],[-76.1383,2.3831],[-76.3101,2.3943],[-76.3244,2.3106],[-76.4022,2.2959],[-76.4178,2.2757],[-76.3809,2.2299],[-76.386,2.1959],[-76.363,2.1553],[-76.3745,2.1086],[-76.4367,2.0725],[-76.5607,2.1331],[-76.6373,2.1005],[-76.6124,1.8647],[-76.5467,1.865],[-76.4769,1.796],[-76.4751,1.651],[-76.4595,1.6272],[-76.335,1.588],[-76.2859,1.5139],[-76.192,1.5371],[-76.1724,1.5272],[-76.2306,1.4553],[-76.3129,1.2835],[-76.2771,1.2198],[-76.2713,1.1614],[-76.2056,1.1756],[-76.2159,1.0988],[-76.1727,1.1148],[-76.0943,1.0186],[-76.1242,0.9962],[-76.1946,1.015],[-76.2234,0.9753],[-76.326,0.9537],[-76.4395,0.9692],[-76.5814,1.0472],[-76.5878,1.1189],[-76.5619,1.2349],[-76.5775,1.3389],[-76.6756,1.4271],[-76.7366,1.3939],[-76.7827,1.2982],[-76.8622,1.3026],[-76.834,1.3388],[-76.8664,1.425],[-76.8197,1.5184],[-76.8365,1.5965],[-77.047,1.7163],[-77.074,1.6985],[-77.0654,1.6893],[-77.2521,1.6606],[-77.364,1.6836],[-77.3248,1.7493],[-77.3272,1.8209],[-77.2408,1.9366],[-77.2408,1.9609],[-77.2875,2.009],[-77.3043,2.1085],[-77.3636,2.0896],[-77.4,2.2117],[-77.63,2.1884],[-77.7488,2.253],[-77.7748,2.3218],[-77.9698,2.5502],[-78.0269,2.6596],[-77.9825,2.6583],[-77.9768,2.7085],[-77.9589,2.6773],[-77.9445,2.7471],[-77.8695,2.685],[-77.8615,2.7756],[-77.7774,2.8065],[-77.8264,2.8148],[-77.7036,2.8997],[-77.7521,2.8994],[-77.6893,3.0094],[-77.7297,3.0194],[-77.755,2.9941],[-77.7135,3.0725],[-77.6997,3.0482],[-77.6542,3.0699],[-77.6847,3.0833],[-77.5666,3.2203],[-77.5274,3.2254],[-77.5182,3.2478],[-77.4387,3.2614],[-77.3723,3.1739],[-77.3049,3.1794],[-77.2541,3.1306],[-77.2547,3.0954],[-77.1982,3.1085],[-77.0564,3.0778],[-76.9947,3.0966],[-76.952,3.0641],[-76.6696,3.112],[-76.6425,3.0975],[-76.6016,3.1152],[-76.556,3.1029],[-76.5549,3.1427],[-76.5342,3.1473],[-76.4921,3.2372],[-76.5198,3.2928],[-76.4599,3.3156],[-76.393,3.283]]]]}},{"type":"Feature","properties":{"dpto":"Cesar","label_lon":-73.539,"label_lat":9.52655},"geometry":{"type":"MultiPolygon","coordinates":[[[[-73.2823,10.8562],[-73.2587,10.7764],[-73.2742,10.728],[-73.2287,10.7526],[-73.2068,10.7438],[-73.1664,10.6767],[-73.1358,10.6783],[-73.0828,10.6353],[-73.1224,10.593],[-73.1414,10.5284],[-73.2122,10.4663],[-73.1805,10.3812],[-73.0963,10.4265],[-72.9822,10.3908],[-72.8347,10.4118],[-72.9423,10.252],[-72.9388,10.1336],[-73.0119,9.9444],[-73.0188,9.8676],[-72.9651,9.8299],[-72.968,9.8096],[-73.0274,9.7521],[-73.1281,9.5411],[-73.1725,9.5205],[-73.2249,9.4399],[-73.2214,9.4156],[-73.2842,9.3518],[-73.3608,9.1661],[-73.427,9.1248],[-73.4517,8.9637],[-73.4361,8.7863],[-73.477,8.716],[-73.4706,8.6894],[-73.5519,8.6297],[-73.5506,8.5026],[-73.5224,8.4707],[-73.4889,8.4717],[-73.4947,8.4175],[-73.5235,8.3708],[-73.4802,8.3071],[-73.4266,8.3415],[-73.4331,8.4267],[-73.3696,8.4141],[-73.361,8.3712],[-73.4254,8.1988],[-73.4328,8.1226],[-73.405,8.0982],[-73.4114,8.0353],[-73.3273,7.9986],[-73.3036,7.9367],[-73.3162,7.9009],[-73.375,7.8752],[-73.3681,7.7943],[-73.4337,7.6946],[-73.5081,7.6845],[-73.6015,7.7196],[-73.7785,7.722],[-73.7647,7.8081],[-73.7048,7.9135],[-73.7584,7.9646],[-73.7556,7.9975],[-73.8006,8.071],[-73.7885,8.1166],[-73.8092,8.1265],[-73.8093,8.1768],[-73.773,8.2321],[-73.7719,8.4227],[-73.8435,8.6176],[-73.8177,8.7787],[-73.8575,8.8239],[-73.8864,8.9055],[-73.8749,8.9632],[-73.8288,9.0404],[-73.8865,9.1105],[-73.9084,9.1799],[-73.9857,9.1935],[-73.9644,9.2576],[-73.9996,9.3444],[-74.1563,9.4771],[-74.0533,9.582],[-73.8095,9.5821],[-73.8228,9.6515],[-73.8672,9.732],[-73.8626,9.7735],[-74.023,9.9319],[-74.1107,10.0663],[-74.0635,10.2018],[-74.0456,10.2029],[-73.9345,10.3601],[-73.7471,10.4079],[-73.7351,10.4436],[-73.6941,10.4492],[-73.6567,10.5039],[-73.6267,10.5148],[-73.6435,10.6558],[-73.6026,10.7475],[-73.6257,10.7632],[-73.6851,10.76],[-73.6886,10.7796],[-73.59,10.8437],[-73.5018,10.8647],[-73.2823,10.8562]]]]}},{"type":"Feature","properties":{"dpto":"Cordoba","label_lon":-75.80184,"label_lat":8.35348},"geometry":{"type":"MultiPolygon","coordinates":[[[[-75.8195,9.423],[-75.7042,9.4023],[-75.6863,9.3624],[-75.7018,9.329],[-75.6817,9.3318],[-75.6557,9.2953],[-75.6234,9.3026],[-75.5208,9.2271],[-75.4666,9.2396],[-75.4706,9.1772],[-75.4245,9.1643],[-75.4256,9.1308],[-75.3559,9.1305],[-75.3057,9.0576],[-75.2474,9.0533],[-75.2151,8.9705],[-75.2099,8.8648],[-75.3263,8.8601],[-75.4041,8.8235],[-75.3435,8.7516],[-75.3677,8.7205],[-75.3146,8.4863],[-75.2097,8.4847],[-75.1975,8.4668],[-75.2171,8.4102],[-75.1577,8.3811],[-75.0494,8.4511],[-75.0436,8.4765],[-74.9006,8.4447],[-74.8764,8.4019],[-74.8078,8.3658],[-74.8003,8.2907],[-74.7731,8.2495],[-74.7881,8.2144],[-74.8365,8.1949],[-74.9108,8.0884],[-74.9586,8.0505],[-75.229,8.0244],[-75.2607,7.9691],[-75.3338,7.918],[-75.3465,7.8568],[-75.4739,7.8077],[-75.4698,7.7759],[-75.5032,7.7073],[-75.5453,7.7081],[-75.5851,7.7337],[-75.6496,7.7131],[-75.7008,7.5834],[-75.8414,7.3887],[-76.0304,7.3531],[-76.3417,7.3516],[-76.4046,7.4113],[-76.4773,7.5352],[-76.5183,7.6457],[-76.5143,7.6937],[-76.4902,7.8351],[-76.4228,7.9734],[-76.3929,8.1333],[-76.3428,8.233],[-76.1959,8.438],[-76.2173,8.5716],[-76.3494,8.653],[-76.3991,8.8334],[-76.4516,8.8873],[-76.3864,8.9154],[-76.3628,8.9517],[-76.2856,8.9981],[-76.2568,9.0748],[-76.1998,9.1347],[-76.1877,9.2213],[-76.1301,9.2701],[-76.114,9.3197],[-75.9492,9.4103],[-75.8195,9.423]]]]}},{"type":"Feature","properties":{"dpto":"Cundinamarca","label_lon":-74.11903,"label_lat":4.80022},"geometry":{"type":"MultiPolygon","coordinates":[[[[-74.3296,5.7489],[-74.3053,5.6708],[-74.3462,5.6121],[-74.292,5.498],[-74.2435,5.4614],[-74.1386,5.4437],[-74.104,5.3863],[-74.055,5.3532],[-73.9737,5.4066],[-73.9155,5.5115],[-73.8164,5.5792],[-73.8264,5.4879],[-73.6924,5.4418],[-73.6359,5.3815],[-73.6416,5.3434],[-73.5966,5.2687],[-73.5638,5.2512],[-73.5591,5.1998],[-73.5101,5.0927],[-73.5192,5.0217],[-73.5716,4.9099],[-73.563,4.8821],[-73.4246,4.8567],[-73.3998,4.8196],[-73.4021,4.7786],[-73.3548,4.7542],[-73.3346,4.7108],[-73.2631,4.7076],[-73.2614,4.6735],[-73.2343,4.6561],[-73.1288,4.6493],[-73.0861,4.7178],[-73.0677,4.6871],[-73.1458,4.1907],[-73.2519,4.2489],[-73.4162,4.2848],[-73.4548,4.2653],[-73.5517,4.264],[-73.6082,4.3775],[-73.6036,4.4456],[-73.6832,4.4673],[-73.7236,4.505],[-73.7962,4.4476],[-73.8348,4.3813],[-73.7655,4.2135],[-73.7759,4.1881],[-73.9291,4.1004],[-74.0392,4.0887],[-74.1141,4.0209],[-74.2196,3.9994],[-74.1828,4.1321],[-74.1459,4.177],[-74.1535,4.2625],[-74.1212,4.3473],[-74.1351,4.4011],[-74.0568,4.4937],[-74.0101,4.6229],[-74.0436,4.6306],[-74.0257,4.6536],[-74.0229,4.7951],[-74.0961,4.815],[-74.1941,4.6786],[-74.1929,4.6433],[-74.2298,4.6261],[-74.1957,4.5145],[-74.2394,4.3819],[-74.221,4.3448],[-74.2681,4.1122],[-74.3148,4.0876],[-74.3834,4.0832],[-74.4116,4.0418],[-74.3821,3.9487],[-74.3844,3.8817],[-74.5169,3.6656],[-74.5106,3.7609],[-74.5631,3.8039],[-74.528,3.9054],[-74.5528,3.9638],[-74.5344,3.9926],[-74.543,4.0262],[-74.5033,4.1086],[-74.5443,4.2249],[-74.6108,4.2529],[-74.6809,4.1989],[-74.7212,4.1973],[-74.8072,4.245],[-74.8251,4.2769],[-74.908,4.2524],[-74.919,4.2761],[-74.8246,4.4917],[-74.8454,4.5577],[-74.8264,4.6466],[-74.8501,4.716],[-74.7833,4.7682],[-74.7822,4.8664],[-74.7637,4.8727],[-74.7591,4.9241],[-74.777,4.9484],[-74.7401,4.9673],[-74.7658,4.998],[-74.7425,5.1499],[-74.7657,5.273],[-74.6971,5.3963],[-74.7012,5.4258],[-74.6833,5.4246],[-74.6926,5.4807],[-74.6713,5.5349],[-74.6851,5.5569],[-74.6489,5.6682],[-74.6794,5.6955],[-74.6766,5.7584],[-74.631,5.7369],[-74.5423,5.7717],[-74.4685,5.7454],[-74.3544,5.8206],[-74.3296,5.7489]]]]}},{"type":"Feature","properties":{"dpto":"Choco","label_lon":-76.98335,"label_lat":5.98564},"geometry":{"type":"MultiPolygon","coordinates":[[[[-77.0213,8.2717],[-77.0011,8.2733],[-76.9737,8.1787],[-76.9636,8.0705],[-77.0217,8.006],[-77.0396,7.9102],[-77.149,7.8222],[-77.1017,7.7406],[-76.9838,7.6272],[-76.8972,7.5889],[-76.8042,7.5767],[-76.7202,7.3866],[-76.5871,7.3032],[-76.5423,7.2542],[-76.503,7.1402],[-76.5433,7.0601],[-76.556,6.9706],[-76.7059,7.0261],[-76.8344,7.0094],[-76.8317,6.9586],[-76.8037,6.9516],[-76.7951,6.8718],[-76.8327,6.8616],[-76.8216,6.8407],[-76.8397,6.8314],[-76.9186,6.8486],[-76.9372,6.8145],[-76.9758,6.8136],[-76.9688,6.7416],[-76.9381,6.7151],[-76.9665,6.6779],[-76.9405,6.6868],[-76.9279,6.6496],[-76.9093,6.6742],[-76.8982,6.6668],[-76.9093,6.6282],[-76.8624,6.6231],[-76.8949,6.6073],[-76.8991,6.5748],[-76.8685,6.573],[-76.8457,6.5244],[-76.823,6.5254],[-76.8248,6.4901],[-76.8072,6.5105],[-76.7719,6.4822],[-76.7997,6.4464],[-76.7668,6.4371],[-76.7983,6.4246],[-76.7691,6.3888],[-76.79,6.3772],[-76.7751,6.3703],[-76.7928,6.3173],[-76.7802,6.2862],[-76.7519,6.2788],[-76.7575,6.2523],[-76.7278,6.2374],[-76.7166,6.1688],[-76.6056,6.1564],[-76.2632,6.1867],[-76.2441,6.0203],[-76.2193,5.9936],[-76.1317,5.9748],[-76.1598,5.8057],[-76.1287,5.746],[-76.1327,5.6507],[-76.0698,5.5725],[-76.064,5.5141],[-76.0173,5.4718],[-76.1152,5.4433],[-76.1636,5.3956],[-76.2766,5.3492],[-76.3152,5.2899],[-76.355,5.2774],[-76.3584,5.2335],[-76.2897,5.146],[-76.2499,5.0257],[-76.1697,4.9583],[-76.2417,4.8344],[-76.3431,4.7823],[-76.41,4.7075],[-76.4664,4.6101],[-76.532,4.4267],[-76.5914,4.4102],[-76.5561,4.242],[-76.4643,4.1625],[-76.6286,4.0384],[-76.692,4.0369],[-76.7929,3.9928],[-76.9838,4.1155],[-77.1002,4.1143],[-77.2017,4.184],[-77.264,4.1658],[-77.2946,4.2398],[-77.3285,4.1816],[-77.3706,4.1986],[-77.4738,4.1973],[-77.5568,4.152],[-77.5441,4.2068],[-77.4882,4.221],[-77.5626,4.2254],[-77.5379,4.3038],[-77.5407,4.2519],[-77.4537,4.2469],[-77.4813,4.2747],[-77.4445,4.2936],[-77.4733,4.3157],[-77.4658,4.3411],[-77.3915,4.4228],[-77.3944,4.4921],[-77.3581,4.5255],[-77.3651,4.6809],[-77.3409,4.6738],[-77.364,4.7155],[-77.3635,4.7721],[-77.3248,4.7292],[-77.3116,4.7378],[-77.3635,4.8166],[-77.3865,4.8231],[-77.3849,4.8929],[-77.4166,4.9508],[-77.4057,5.023],[-77.4357,5.1531],[-77.4069,5.2165],[-77.4427,5.193],[-77.4508,5.2202],[-77.4387,5.3091],[-77.411,5.2893],[-77.4272,5.3402],[-77.4468,5.3466],[-77.4578,5.4108],[-77.4301,5.4609],[-77.4699,5.464],[-77.4769,5.5085],[-77.5408,5.4984],[-77.5749,5.5135],[-77.5461,5.6035],[-77.4596,5.6297],[-77.4054,5.6168],[-77.3669,5.6755],[-77.3006,5.7267],[-77.2758,5.7947],[-77.3405,5.8967],[-77.3809,6.0609],[-77.4046,6.0696],[-77.4063,6.046],[-77.5003,6.2254],[-77.4894,6.3005],[-77.4398,6.2656],[-77.4104,6.2949],[-77.3995,6.3752],[-77.4191,6.3891],[-77.3661,6.4027],[-77.3431,6.5326],[-77.4141,6.6952],[-77.4772,6.7047],[-77.5085,6.6854],[-77.509,6.6531],[-77.5309,6.6509],[-77.5742,6.7874],[-77.6857,6.8714],[-77.7076,6.8542],[-77.7198,6.8756],[-77.7065,6.9362],[-77.6708,6.9805],[-77.7354,7.079],[-77.8767,7.1824],[-77.9171,7.2559],[-77.8417,7.4572],[-77.7063,7.5086],[-77.7413,7.5995],[-77.7341,7.6673],[-77.6589,7.649],[-77.5879,7.5169],[-77.5689,7.5133],[-77.5248,7.6037],[-77.3727,7.7989],[-77.2136,7.9005],[-77.2263,7.9254],[-77.2091,7.9981],[-77.2755,8.1913],[-77.3528,8.2638],[-77.3903,8.4009],[-77.467,8.4907],[-77.3853,8.6504],[-77.2826,8.5437],[-77.2497,8.4794],[-77.143,8.4108],[-77.0778,8.2921],[-77.0213,8.2717]]]]}},{"type":"Feature","properties":{"dpto":"Huila","label_lon":-75.63983,"label_lat":2.53662},"geometry":{"type":"MultiPolygon","coordinates":[[[[-74.636,3.2739],[-74.7103,3.187],[-74.7293,3.1154],[-74.8457,3.0564],[-74.9551,2.8888],[-75.0778,2.7559],[-75.012,2.6343],[-75.0161,2.6066],[-75.1947,2.4809],[-75.2414,2.5371],[-75.2817,2.4731],[-75.3024,2.3704],[-75.4683,2.1909],[-75.5858,1.9672],[-75.6797,1.9226],[-75.7569,1.8536],[-75.8681,1.6606],[-75.9597,1.5991],[-76.0219,1.5266],[-76.1325,1.4935],[-76.192,1.5371],[-76.2859,1.5139],[-76.335,1.588],[-76.4595,1.6272],[-76.4751,1.651],[-76.4769,1.796],[-76.5467,1.865],[-76.6124,1.8647],[-76.6373,2.1005],[-76.5607,2.1331],[-76.4367,2.0725],[-76.3745,2.1086],[-76.363,2.1553],[-76.386,2.1959],[-76.3809,2.2299],[-76.4178,2.2757],[-76.4022,2.2959],[-76.3244,2.3106],[-76.3101,2.3943],[-76.1383,2.3831],[-76.0962,2.4188],[-76.0755,2.4689],[-76.0409,2.485],[-75.9573,2.4609],[-75.9285,2.4158],[-75.8501,2.4501],[-75.8905,2.597],[-75.943,2.6694],[-75.9892,2.7874],[-76.0049,2.9689],[-75.8982,2.9765],[-75.8418,3.045],[-75.7859,3.0332],[-75.7576,3.0759],[-75.6868,3.1229],[-75.6049,3.1382],[-75.5917,3.152],[-75.5986,3.2242],[-75.4108,3.3545],[-75.3958,3.3868],[-75.3393,3.3918],[-75.2891,3.3546],[-75.2586,3.3955],[-75.2367,3.3954],[-75.2148,3.3658],[-75.1941,3.3941],[-75.0765,3.43],[-75.0413,3.3645],[-75.1035,3.3013],[-75.0994,3.2828],[-75.0303,3.26],[-74.9553,3.2666],[-74.7929,3.423],[-74.8142,3.4745],[-74.8067,3.5045],[-74.7635,3.5448],[-74.7566,3.5863],[-74.6022,3.7197],[-74.5717,3.8079],[-74.5054,3.7441],[-74.5244,3.7136],[-74.5209,3.6367],[-74.6165,3.4771],[-74.636,3.2739]]]]}},{"type":"Feature","properties":{"dpto":"La Guajira","label_lon":-72.48377,"label_lat":11.44212},"geometry":{"type":"MultiPolygon","coordinates":[[[[-71.6212,12.4235],[-71.5664,12.4106],[-71.518,12.3659],[-71.36,12.3335],[-71.3231,12.3062],[-71.2152,12.1018],[-71.199,12.0382],[-71.2094,12.0111],[-71.2854,11.9392],[-71.3494,11.9129],[-71.4358,11.8255],[-71.441,11.8122],[-71.4093,11.8196],[-71.4196,11.7896],[-71.9757,11.6466],[-72.2542,11.143],[-72.3503,11.1542],[-72.4536,11.1256],[-72.5013,11.0883],[-72.6791,10.6737],[-72.8347,10.4118],[-72.9822,10.3908],[-73.0963,10.4265],[-73.1805,10.3812],[-73.2122,10.4663],[-73.1414,10.5284],[-73.1224,10.593],[-73.0828,10.6353],[-73.1358,10.6783],[-73.1664,10.6767],[-73.2068,10.7438],[-73.2287,10.7526],[-73.2742,10.728],[-73.2587,10.7764],[-73.2823,10.8562],[-73.4672,10.8709],[-73.6407,10.8268],[-73.6783,10.9373],[-73.683,11.0863],[-73.6801,11.1267],[-73.6219,11.1831],[-73.6127,11.2483],[-73.3683,11.2594],[-72.9765,11.5535],[-72.8943,11.5641],[-72.8613,11.5866],[-72.8521,11.6197],[-72.7564,11.6941],[-72.5575,11.7464],[-72.5294,11.7777],[-72.4578,11.7755],[-72.3506,11.8329],[-72.3264,11.8679],[-72.2855,11.8781],[-72.2832,11.922],[-72.1882,12.0909],[-72.1923,12.1567],[-72.2263,12.2002],[-72.0257,12.2311],[-72.0476,12.1804],[-72.0395,12.1324],[-71.994,12.1397],[-71.9658,12.1743],[-71.9202,12.181],[-71.9566,12.2499],[-72.0079,12.2605],[-71.9278,12.3364],[-71.8909,12.3588],[-71.8846,12.2941],[-71.8281,12.3302],[-71.7953,12.3815],[-71.7676,12.3479],[-71.7555,12.3779],[-71.7157,12.3904],[-71.7053,12.4054],[-71.7353,12.4003],[-71.7307,12.4211],[-71.7947,12.3994],[-71.7826,12.4207],[-71.7169,12.4361],[-71.6212,12.4235]]]]}},{"type":"Feature","properties":{"dpto":"Magdalena","label_lon":-74.28193,"label_lat":10.22806},"geometry":{"type":"MultiPolygon","coordinates":[[[[-74.0918,11.3277],[-74.0319,11.3309],[-73.86,11.2534],[-73.6127,11.2483],[-73.6219,11.1831],[-73.6801,11.1267],[-73.6846,10.9841],[-73.6407,10.8268],[-73.59,10.8437],[-73.6909,10.7715],[-73.6026,10.7475],[-73.6435,10.6558],[-73.6267,10.5148],[-73.6567,10.5039],[-73.6941,10.4492],[-73.7351,10.4436],[-73.7471,10.4079],[-73.9068,10.3791],[-73.9581,10.3389],[-74.0088,10.249],[-74.0716,10.1874],[-74.1107,10.0663],[-74.023,9.9319],[-73.8626,9.7735],[-73.8672,9.732],[-73.8124,9.6174],[-73.8228,9.5724],[-74.0533,9.582],[-74.1563,9.4771],[-73.9996,9.3444],[-73.9644,9.2576],[-73.9857,9.1935],[-73.9084,9.1799],[-73.8865,9.1105],[-73.8369,9.0589],[-73.834,9.0144],[-73.8772,8.9568],[-74.0201,8.9794],[-74.053,9.0188],[-74.0951,9.0017],[-74.1504,9.0094],[-74.1476,9.0325],[-74.196,9.0598],[-74.2635,9.1398],[-74.3229,9.147],[-74.309,9.173],[-74.3212,9.188],[-74.3638,9.209],[-74.4249,9.1919],[-74.4607,9.2435],[-74.5339,9.2236],[-74.6798,9.3975],[-74.809,9.4286],[-74.8108,9.5418],[-74.7774,9.6006],[-74.8466,9.691],[-74.823,9.7614],[-74.8917,9.9067],[-74.8564,9.9574],[-74.7963,9.9981],[-74.7963,10.0237],[-74.8612,10.0991],[-74.9355,10.1104],[-74.95,10.1307],[-74.8954,10.3127],[-74.8274,10.4534],[-74.7433,10.5628],[-74.7504,10.7893],[-74.7314,10.8828],[-74.7724,10.9228],[-74.7747,10.9702],[-74.8526,11.0727],[-74.5355,10.9611],[-74.4231,10.956],[-74.321,10.9746],[-74.2571,11.0385],[-74.2479,11.1135],[-74.2699,11.2095],[-74.2157,11.2647],[-74.2054,11.3034],[-74.1806,11.2981],[-74.1333,11.3395],[-74.0918,11.3277]]]]}},{"type":"Feature","properties":{"dpto":"Meta","label_lon":-72.96553,"label_lat":3.31896},"geometry":{"type":"MultiPolygon","coordinates":[[[[-71.0799,4.4449],[-71.0952,2.8455],[-71.1517,2.8527],[-71.1666,2.836],[-71.2041,2.85],[-71.2594,2.8335],[-71.2894,2.8382],[-71.324,2.8776],[-71.3684,2.8333],[-71.3817,2.8502],[-71.3955,2.8161],[-71.4762,2.8494],[-71.4964,2.8264],[-71.5517,2.8347],[-71.5967,2.8112],[-71.6779,2.8075],[-71.6762,2.8265],[-71.7304,2.8239],[-71.7823,2.8582],[-71.7869,2.8137],[-71.8146,2.8225],[-72.0059,2.7696],[-72.1085,2.8087],[-72.1495,2.8563],[-72.221,2.8288],[-72.2053,2.7288],[-72.2757,2.7771],[-72.2912,2.7511],[-72.3644,2.7451],[-72.4543,2.6796],[-72.5304,2.6817],[-72.561,2.6362],[-72.6192,2.6358],[-72.5898,2.5912],[-72.6607,2.5967],[-72.6831,2.5518],[-72.6976,2.5957],[-72.7235,2.6028],[-72.754,2.5503],[-72.8128,2.5835],[-72.9062,2.5464],[-72.9736,2.4883],[-72.9379,2.4552],[-72.9851,2.4491],[-72.9649,2.3889],[-73.0064,2.4243],[-73.0364,2.4031],[-73.0762,2.4113],[-73.1211,2.3647],[-73.1592,2.3851],[-73.143,2.3579],[-73.1776,2.3494],[-73.1822,2.3788],[-73.2237,2.3686],[-73.2307,2.3848],[-73.2808,2.3579],[-73.2537,2.3491],[-73.2629,2.333],[-73.3465,2.3275],[-73.369,2.3103],[-73.3626,2.3351],[-73.384,2.3421],[-73.3955,2.3058],[-73.4122,2.3307],[-73.4474,2.3216],[-73.4566,2.3656],[-73.4768,2.3616],[-73.4647,2.3321],[-73.4785,2.3177],[-73.4935,2.3414],[-73.5333,2.3231],[-73.5488,2.3654],[-73.5771,2.3314],[-73.6053,2.3656],[-73.648,2.3329],[-73.633,2.3166],[-73.6602,1.6109],[-73.7899,1.6062],[-73.8966,1.5732],[-73.9853,1.5758],[-74.047,1.6015],[-74.0932,1.6473],[-74.1405,1.6585],[-74.2235,1.764],[-74.2748,1.785],[-74.472,1.8066],[-74.5406,1.867],[-74.6312,2.0378],[-74.6313,2.17],[-74.6619,2.2499],[-74.6955,2.5186],[-74.6051,2.6678],[-74.6046,2.7666],[-74.6674,2.8194],[-74.9206,2.9441],[-74.8457,3.0564],[-74.7293,3.1154],[-74.7103,3.187],[-74.636,3.2739],[-74.6165,3.4771],[-74.5169,3.6656],[-74.4811,3.6556],[-74.4379,3.6757],[-74.4172,3.727],[-74.3296,3.8202],[-74.3273,3.8681],[-74.2386,3.9856],[-74.1141,4.0209],[-74.0392,4.0887],[-73.9291,4.1004],[-73.7643,4.2002],[-73.8105,4.3529],[-73.8353,4.3761],[-73.8233,4.4159],[-73.7559,4.4867],[-73.7097,4.5032],[-73.6832,4.4673],[-73.6036,4.4456],[-73.6082,4.3775],[-73.5517,4.264],[-73.4548,4.2653],[-73.4162,4.2848],[-73.2519,4.2489],[-73.1458,4.1907],[-73.0723,4.6664],[-72.8698,4.3975],[-72.849,4.3957],[-72.8496,4.3731],[-72.8133,4.3655],[-72.8138,4.3233],[-72.781,4.3053],[-72.7677,4.2659],[-72.725,4.2473],[-72.7106,4.2703],[-72.5953,4.2721],[-72.5631,4.3153],[-72.4933,4.2873],[-72.4651,4.3091],[-72.4011,4.3019],[-72.2622,4.3903],[-72.1014,4.3989],[-72.0616,4.3456],[-71.9838,4.3666],[-71.8132,4.5328],[-71.6409,4.5939],[-71.5735,4.6485],[-71.1949,4.7965],[-71.0854,4.8602],[-71.0799,4.4449]]]]}},{"type":"Feature","properties":{"dpto":"Nariño","label_lon":-77.88893,"label_lat":1.54669},"geometry":{"type":"MultiPolygon","coordinates":[[[[-77.9836,2.5774],[-77.7748,2.3218],[-77.7488,2.253],[-77.63,2.1884],[-77.4,2.2117],[-77.3636,2.0896],[-77.3043,2.1085],[-77.2875,2.009],[-77.2408,1.9609],[-77.2408,1.9366],[-77.3272,1.8209],[-77.3248,1.7493],[-77.3646,1.6922],[-77.353,1.6737],[-77.2521,1.6606],[-77.1213,1.6751],[-77.0654,1.6893],[-77.074,1.6985],[-77.047,1.7163],[-76.8365,1.5965],[-76.8203,1.5692],[-76.8197,1.5184],[-76.8664,1.425],[-76.834,1.3579],[-76.8519,1.3118],[-76.9654,1.2429],[-77.0957,1.2059],[-77.1135,1.1858],[-77.0984,0.9246],[-77.0615,0.8673],[-77.0308,0.6615],[-77.1605,0.6245],[-77.1345,0.5822],[-77.1506,0.5297],[-77.1079,0.4475],[-77.1136,0.3592],[-77.2376,0.3366],[-77.3586,0.3752],[-77.4082,0.3535],[-77.448,0.3594],[-77.523,0.4886],[-77.5202,0.5908],[-77.5484,0.6256],[-77.6545,0.6653],[-77.6989,0.7082],[-77.6794,0.7977],[-77.6909,0.8254],[-77.7371,0.8367],[-77.9186,0.7865],[-78.0212,0.8066],[-78.2986,1.0186],[-78.4059,1.0479],[-78.5235,1.1784],[-78.6382,1.1968],[-78.6902,1.2657],[-78.7201,1.2664],[-78.7588,1.3267],[-78.9053,1.4521],[-78.9117,1.4879],[-78.9566,1.484],[-78.9687,1.5176],[-79.0714,1.6064],[-79.0731,1.6439],[-78.9234,1.827],[-78.6588,1.7849],[-78.6092,1.7962],[-78.6006,1.9042],[-78.6415,1.9211],[-78.6404,1.9985],[-78.6693,2.0362],[-78.7183,2.0248],[-78.7235,2.0451],[-78.712,2.1461],[-78.6198,2.1521],[-78.6077,2.2225],[-78.6463,2.2302],[-78.6723,2.3279],[-78.6067,2.4819],[-78.5249,2.5271],[-78.4644,2.5927],[-78.3801,2.4584],[-78.3911,2.4954],[-78.3652,2.5814],[-78.3335,2.5523],[-78.2644,2.6589],[-78.2229,2.6778],[-78.182,2.6776],[-78.1456,2.5648],[-78.0402,2.6799],[-77.9836,2.5774]]]]}},{"type":"Feature","properties":{"dpto":"Norte De Santander","label_lon":-72.90946,"label_lat":8.06566},"geometry":{"type":"MultiPolygon","coordinates":[[[[-73.0178,9.134],[-72.9682,9.0691],[-72.8633,9.1086],[-72.8362,9.0738],[-72.8079,9.0685],[-72.69,8.5891],[-72.6526,8.5809],[-72.4299,8.3287],[-72.4073,8.1645],[-72.4084,7.9947],[-72.5081,7.9021],[-72.4809,7.8327],[-72.5229,7.7058],[-72.4986,7.5405],[-72.5147,7.4886],[-72.4582,7.3855],[-72.3913,7.3604],[-72.2674,7.3784],[-72.1993,7.3492],[-72.2102,7.2482],[-72.0902,7.0149],[-72.213,7.0275],[-72.2741,6.9654],[-72.3075,6.9927],[-72.3709,6.8873],[-72.4233,6.8574],[-72.5184,6.8925],[-72.5847,6.8864],[-72.575,6.9407],[-72.6067,6.9824],[-72.711,6.9701],[-72.7162,6.9881],[-72.7946,6.9976],[-72.8252,7.0284],[-72.9071,7.0564],[-72.8668,7.1591],[-72.9077,7.2367],[-72.864,7.3162],[-72.9003,7.3498],[-72.9551,7.4679],[-72.9955,7.4975],[-73.0308,7.6034],[-73.0636,7.6151],[-73.0895,7.5984],[-73.263,7.5997],[-73.2849,7.549],[-73.3356,7.5186],[-73.4234,7.5625],[-73.4769,7.5579],[-73.5374,7.5813],[-73.6101,7.6844],[-73.6499,7.7084],[-73.6015,7.7196],[-73.5081,7.6845],[-73.4337,7.6946],[-73.3681,7.7943],[-73.375,7.8752],[-73.3162,7.9009],[-73.3036,7.9367],[-73.3273,7.9986],[-73.4114,8.0353],[-73.405,8.0982],[-73.4328,8.1226],[-73.4254,8.1988],[-73.361,8.3712],[-73.3696,8.4141],[-73.4331,8.4267],[-73.4266,8.3415],[-73.4802,8.3071],[-73.5235,8.3708],[-73.4947,8.4175],[-73.4889,8.4717],[-73.5224,8.4707],[-73.5593,8.5408],[-73.5473,8.643],[-73.4706,8.6894],[-73.477,8.716],[-73.4361,8.7863],[-73.4517,8.9637],[-73.427,9.1248],[-73.3711,9.1488],[-73.2933,9.1335],[-73.2345,9.15],[-73.0519,9.2665],[-73.0213,9.2242],[-73.0178,9.134]]]]}},{"type":"Feature","properties":{"dpto":"Quindio","label_lon":-75.69105,"label_lat":4.47756},"geometry":{"type":"MultiPolygon","coordinates":[[[[-75.6721,4.6946],[-75.5015,4.6702],[-75.4196,4.7027],[-75.3735,4.6454],[-75.5152,4.5576],[-75.5602,4.5081],[-75.608,4.4205],[-75.6304,4.3039],[-75.6828,4.1979],[-75.7196,4.1431],[-75.7588,4.1364],[-75.8027,4.1978],[-75.8269,4.2776],[-75.8241,4.3654],[-75.8651,4.4251],[-75.872,4.5233],[-75.902,4.5921],[-75.8796,4.6227],[-75.7441,4.6296],[-75.7459,4.7087],[-75.6721,4.6946]]]]}},{"type":"Feature","properties":{"dpto":"Risaralda","label_lon":-76.01565,"label_lat":5.28729},"geometry":{"type":"MultiPolygon","coordinates":[[[[-75.8865,5.4751],[-75.895,5.3528],[-75.7336,5.381],[-75.7145,5.3319],[-75.6782,5.3259],[-75.7347,5.2522],[-75.8027,5.2756],[-75.8673,5.2736],[-75.8488,5.1961],[-75.8856,5.1125],[-75.9185,5.1248],[-75.9531,5.1128],[-75.9539,5.0339],[-75.9213,4.955],[-75.9006,4.9445],[-75.9068,4.9208],[-75.8117,4.9175],[-75.8417,4.9529],[-75.8314,4.9898],[-75.7841,5.0324],[-75.7478,4.9346],[-75.723,4.9218],[-75.6884,4.9286],[-75.6786,4.9591],[-75.6388,4.9266],[-75.5483,4.9211],[-75.4975,4.8914],[-75.4133,4.8055],[-75.4196,4.7027],[-75.517,4.6702],[-75.8791,4.7226],[-75.89,4.766],[-75.9581,4.761],[-75.9673,4.7969],[-75.9489,4.8598],[-76.0054,4.8508],[-76.0175,4.8953],[-76.0838,4.9736],[-76.1772,4.9635],[-76.2499,5.0257],[-76.2897,5.146],[-76.3584,5.2335],[-76.355,5.2774],[-76.3152,5.2899],[-76.2766,5.3492],[-76.1636,5.3956],[-76.1152,5.4433],[-76.0173,5.4718],[-75.8865,5.4751]]]]}},{"type":"Feature","properties":{"dpto":"Santander","label_lon":-73.51417,"label_lat":6.67699},"geometry":{"type":"MultiPolygon","coordinates":[[[[-73.8001,8.115],[-73.8006,8.071],[-73.7556,7.9975],[-73.7584,7.9646],[-73.7048,7.9135],[-73.7647,7.8081],[-73.7785,7.722],[-73.643,7.7076],[-73.5374,7.5813],[-73.4769,7.5579],[-73.4234,7.5625],[-73.3356,7.5186],[-73.2849,7.549],[-73.263,7.5997],[-73.0895,7.5984],[-73.0636,7.6151],[-73.0308,7.6034],[-72.9955,7.4975],[-72.9551,7.4679],[-72.9003,7.3498],[-72.864,7.3162],[-72.9077,7.2367],[-72.8668,7.1591],[-72.9071,7.0564],[-72.8252,7.0284],[-72.7946,6.9976],[-72.7162,6.9881],[-72.711,6.9701],[-72.6067,6.9824],[-72.575,6.9407],[-72.5847,6.8864],[-72.5311,6.8943],[-72.5161,6.781],[-72.5258,6.621],[-72.5701,6.5508],[-72.5678,6.4705],[-72.6433,6.4194],[-72.6853,6.4126],[-72.7488,6.5221],[-72.8019,6.5668],[-72.8387,6.5369],[-72.7568,6.4233],[-72.789,6.2311],[-72.9797,6.0326],[-73.0131,5.975],[-73.0892,5.9511],[-73.2367,5.9771],[-73.3024,5.8509],[-73.3877,5.8241],[-73.4297,5.7405],[-73.4978,5.8453],[-73.4511,5.8757],[-73.4028,5.9685],[-73.4408,6.0455],[-73.5331,6.0944],[-73.6304,5.9464],[-73.6372,5.7437],[-73.6764,5.7057],[-73.7156,5.7515],[-73.767,5.7615],[-73.8822,5.7297],[-73.903,5.7061],[-73.9139,5.7206],[-73.9981,5.7221],[-74.0275,5.7782],[-74.1071,5.7994],[-74.1111,5.8323],[-74.1354,5.8515],[-74.2028,5.8812],[-74.2506,5.8358],[-74.2611,5.9207],[-74.2911,5.9417],[-74.2923,6.0497],[-74.3211,6.0579],[-74.3891,6.0224],[-74.4641,6.0567],[-74.5056,6.1921],[-74.5518,6.2474],[-74.4475,6.3669],[-74.3945,6.3869],[-74.4442,6.5309],[-74.4182,6.5758],[-74.1854,6.7227],[-74.1457,6.7572],[-74.1134,6.8241],[-74.0086,6.908],[-73.9532,6.9291],[-73.8962,6.9924],[-73.9401,7.0839],[-73.9586,7.2751],[-73.927,7.3807],[-73.934,7.4709],[-73.8568,7.5814],[-73.8246,7.7436],[-73.8904,7.9761],[-73.8882,8.057],[-73.819,8.1206],[-73.8001,8.115]]]]}},{"type":"Feature","properties":{"dpto":"Sucre","label_lon":-75.12388,"label_lat":9.06276},"geometry":{"type":"MultiPolygon","coordinates":[[[[-75.4831,9.8849],[-75.3378,9.8537],[-75.3412,9.7693],[-75.3919,9.6662],[-75.3775,9.6187],[-75.3608,9.6285],[-75.3642,9.6643],[-75.2518,9.676],[-75.1971,9.6573],[-75.1215,9.5738],[-75.0431,9.548],[-75.0021,9.5132],[-74.93,9.4095],[-74.9172,9.2121],[-74.8434,9.0718],[-74.7995,9.0289],[-74.6963,8.9874],[-74.6017,8.8617],[-74.5751,8.7709],[-74.6258,8.7018],[-74.5588,8.4173],[-74.5876,8.362],[-74.621,8.3708],[-74.6308,8.3148],[-74.6757,8.2803],[-74.7126,8.2874],[-74.7731,8.2495],[-74.8003,8.2907],[-74.8078,8.3658],[-74.8764,8.4019],[-74.9006,8.4447],[-75.0436,8.4765],[-75.0494,8.4511],[-75.1577,8.3811],[-75.2171,8.4102],[-75.1975,8.4668],[-75.2097,8.4847],[-75.3019,8.484],[-75.3261,8.5014],[-75.3227,8.5591],[-75.3677,8.7205],[-75.3435,8.7516],[-75.4041,8.8235],[-75.3263,8.8601],[-75.2099,8.8648],[-75.2151,8.9705],[-75.2474,9.0533],[-75.3057,9.0576],[-75.3559,9.1305],[-75.4256,9.1308],[-75.4245,9.1643],[-75.4706,9.1772],[-75.4666,9.2396],[-75.5208,9.2271],[-75.6234,9.3026],[-75.6557,9.2953],[-75.6817,9.3318],[-75.7018,9.329],[-75.6863,9.3624],[-75.7042,9.4023],[-75.6523,9.42],[-75.5763,9.5826],[-75.6167,9.6844],[-75.7044,9.7067],[-75.6347,9.7867],[-75.6307,9.8462],[-75.5863,9.9558],[-75.5402,9.9897],[-75.5466,10.0527],[-75.5864,10.0771],[-75.5069,10.1166],[-75.5259,10.041],[-75.4786,9.9946],[-75.4831,9.8849]]]]}},{"type":"Feature","properties":{"dpto":"Tolima","label_lon":-75.26584,"label_lat":4.04458},"geometry":{"type":"MultiPolygon","coordinates":[[[[-74.84,5.2814],[-74.7657,5.273],[-74.7593,5.2574],[-74.7425,5.1499],[-74.7658,4.998],[-74.7401,4.9673],[-74.777,4.9484],[-74.7591,4.9241],[-74.7637,4.8727],[-74.7822,4.8664],[-74.7833,4.7682],[-74.8501,4.716],[-74.8264,4.6466],[-74.8454,4.5577],[-74.8246,4.4917],[-74.9184,4.2663],[-74.908,4.2524],[-74.8251,4.2769],[-74.8072,4.245],[-74.7212,4.1973],[-74.6809,4.1989],[-74.6108,4.2529],[-74.5443,4.2249],[-74.5033,4.1086],[-74.5528,3.9638],[-74.5297,3.8944],[-74.6022,3.7197],[-74.7566,3.5863],[-74.7635,3.5448],[-74.8142,3.4745],[-74.7929,3.423],[-74.9553,3.2666],[-75.0303,3.26],[-75.0994,3.2828],[-75.1035,3.3013],[-75.0413,3.3645],[-75.0765,3.43],[-75.1941,3.3941],[-75.2148,3.3658],[-75.2367,3.3954],[-75.2586,3.3955],[-75.2891,3.3546],[-75.3393,3.3918],[-75.3958,3.3868],[-75.4108,3.3545],[-75.5986,3.2242],[-75.5917,3.152],[-75.6049,3.1382],[-75.6868,3.1229],[-75.7576,3.0759],[-75.7859,3.0332],[-75.8418,3.045],[-75.8982,2.9765],[-76.0049,2.9689],[-76.0798,3.0298],[-76.1007,3.1171],[-76.0955,3.2292],[-76.0247,3.4316],[-75.9983,3.6377],[-75.8872,3.896],[-75.84,3.9397],[-75.761,3.9331],[-75.7144,4.0004],[-75.7283,4.1357],[-75.6407,4.2797],[-75.608,4.4205],[-75.5602,4.5081],[-75.5152,4.5576],[-75.3735,4.6454],[-75.4196,4.7027],[-75.4122,4.8119],[-75.3546,4.8515],[-75.3638,4.9284],[-75.3448,4.9936],[-75.361,5.0837],[-75.3253,5.1269],[-75.2538,5.1278],[-75.2077,5.1536],[-75.1622,5.1453],[-75.1058,5.2404],[-75.0631,5.2708],[-74.8913,5.2915],[-74.84,5.2814]]]]}},{"type":"Feature","properties":{"dpto":"Valle Del Cauca","label_lon":-76.53355,"label_lat":3.8658},"geometry":{"type":"MultiPolygon","coordinates":[[[[-76.0838,4.9736],[-76.0175,4.8953],[-76.0054,4.8508],[-75.9489,4.8598],[-75.9673,4.7969],[-75.9488,4.7523],[-75.89,4.766],[-75.8791,4.7226],[-75.7459,4.7087],[-75.7441,4.6296],[-75.8796,4.6227],[-75.902,4.5893],[-75.872,4.5233],[-75.8651,4.4251],[-75.8241,4.3654],[-75.8269,4.2776],[-75.8027,4.1978],[-75.7709,4.1422],[-75.7196,4.1431],[-75.7288,4.0889],[-75.7098,4.0154],[-75.761,3.9331],[-75.84,3.9397],[-75.8728,3.9133],[-75.946,3.786],[-76.0087,3.5939],[-76.0305,3.408],[-76.0971,3.2086],[-76.1653,3.2173],[-76.2598,3.2738],[-76.3746,3.2754],[-76.4899,3.3163],[-76.5227,3.2876],[-76.4921,3.2372],[-76.5342,3.1473],[-76.5549,3.1427],[-76.556,3.1029],[-76.6016,3.1152],[-76.6425,3.0975],[-76.6696,3.112],[-76.952,3.0641],[-76.9947,3.0966],[-77.0564,3.0778],[-77.1982,3.1085],[-77.2547,3.0954],[-77.2541,3.1306],[-77.3049,3.1794],[-77.3723,3.1739],[-77.4387,3.2614],[-77.5182,3.2478],[-77.5632,3.2729],[-77.4578,3.3764],[-77.4238,3.3745],[-77.418,3.3953],[-77.3765,3.413],[-77.3633,3.4892],[-77.3817,3.4957],[-77.3288,3.5711],[-77.2279,3.6192],[-77.1824,3.6652],[-77.1847,3.7045],[-77.2072,3.6954],[-77.1842,3.8171],[-77.1317,3.8123],[-77.1024,3.8896],[-77.0695,3.9097],[-77.284,3.858],[-77.3428,3.8715],[-77.3134,3.902],[-77.3572,3.9195],[-77.3624,3.945],[-77.3244,3.9552],[-77.3152,3.9788],[-77.2996,3.9788],[-77.3036,3.9597],[-77.2604,3.9821],[-77.2581,4.0595],[-77.2922,4.0937],[-77.3469,4.0697],[-77.378,3.9658],[-77.4062,3.9417],[-77.4743,4.0303],[-77.4749,4.1251],[-77.438,4.1382],[-77.4104,4.193],[-77.3285,4.1816],[-77.2986,4.2404],[-77.264,4.1658],[-77.2017,4.184],[-77.1002,4.1143],[-76.9838,4.1155],[-76.7987,3.9934],[-76.5918,4.0578],[-76.4621,4.1699],[-76.5561,4.242],[-76.5914,4.4102],[-76.532,4.4267],[-76.4664,4.6101],[-76.3587,4.7702],[-76.2417,4.8344],[-76.1697,4.9651],[-76.0838,4.9736]]]]}},{"type":"Feature","properties":{"dpto":"Arauca","label_lon":-70.985,"label_lat":6.53657},"geometry":{"type":"MultiPolygon","coordinates":[[[[-70.6987,7.0593],[-70.6572,7.0384],[-70.5816,7.0455],[-70.5551,6.9969],[-70.4254,6.9715],[-70.3481,6.9117],[-70.1446,6.9559],[-69.4425,6.0656],[-69.4576,6.0329],[-69.623,5.9885],[-69.9043,6.0128],[-69.958,6.0979],[-70.0548,6.1082],[-70.0871,6.1672],[-70.1823,6.2485],[-70.4469,6.2421],[-70.5108,6.206],[-70.6688,6.1881],[-70.8135,6.2049],[-70.904,6.1845],[-71.2234,6.2505],[-71.3744,6.1992],[-71.4539,6.2041],[-71.5196,6.168],[-71.5951,6.1649],[-71.6649,6.2004],[-71.7312,6.192],[-71.8476,6.137],[-71.9525,6.134],[-72.0753,6.0918],[-72.1507,6.0401],[-72.2793,6.0961],[-72.3122,6.1731],[-72.3958,6.1861],[-72.4195,6.2267],[-72.3936,6.2953],[-72.3166,6.3531],[-72.317,6.4157],[-72.2311,6.413],[-72.1654,6.4734],[-72.1407,6.5969],[-72.0555,6.7664],[-71.987,6.985],[-71.885,6.9932],[-71.7997,7.0408],[-71.7772,7.0269],[-71.7518,7.0406],[-71.7374,7.0117],[-71.6953,7.0034],[-71.678,7.0351],[-71.6048,7.003],[-71.5166,7.0113],[-71.4861,6.9916],[-71.4538,7.0111],[-71.3863,6.9871],[-71.3206,6.9984],[-71.218,6.9852],[-71.1684,7.0041],[-71.0894,6.9547],[-71.041,6.9614],[-70.871,7.052],[-70.7189,7.0721],[-70.6987,7.0593]]]]}},{"type":"Feature","properties":{"dpto":"Casanare","label_lon":-71.62305,"label_lat":5.36816},"geometry":{"type":"MultiPolygon","coordinates":[[[[-70.1725,6.2479],[-70.0583,6.1353],[-70.0548,6.1082],[-69.958,6.0979],[-69.9176,6.0562],[-69.9112,6.0163],[-69.8479,6.0049],[-70.0471,5.6946],[-70.0505,5.6541],[-70.1162,5.6336],[-70.1415,5.5881],[-70.2395,5.5446],[-70.4182,5.5176],[-70.6833,5.331],[-70.6971,5.2681],[-70.7397,5.2082],[-70.8359,5.1491],[-70.8676,5.1053],[-70.9541,5.0826],[-71.0237,4.9339],[-71.0882,4.8556],[-71.1562,4.8172],[-71.5735,4.6485],[-71.7239,4.5567],[-71.8132,4.5328],[-71.9838,4.3666],[-72.0616,4.3456],[-72.1014,4.3989],[-72.2622,4.3903],[-72.4011,4.3019],[-72.4651,4.3091],[-72.4933,4.2873],[-72.5631,4.3153],[-72.5953,4.2721],[-72.7106,4.2703],[-72.7314,4.2467],[-72.7677,4.2659],[-72.781,4.3053],[-72.8138,4.3233],[-72.8133,4.3655],[-72.8496,4.3731],[-72.849,4.3957],[-72.8698,4.3975],[-73.0723,4.6664],[-73.0989,4.7785],[-73.0707,4.8373],[-73.0609,4.9205],[-73.0471,4.9522],[-72.9301,5.0216],[-72.9336,5.0626],[-72.9861,5.1142],[-72.9584,5.1811],[-72.9717,5.2101],[-72.8236,5.3429],[-72.7094,5.2361],[-72.668,5.3179],[-72.608,5.3396],[-72.5925,5.3783],[-72.5383,5.4127],[-72.4208,5.5428],[-72.3545,5.4651],[-72.3268,5.4713],[-72.3056,5.6237],[-72.2528,5.6601],[-72.3368,5.7636],[-72.4752,5.8289],[-72.4095,5.8916],[-72.36,6.0543],[-72.4027,6.0937],[-72.4339,6.1695],[-72.4195,6.2267],[-72.3958,6.1861],[-72.3122,6.1731],[-72.2793,6.0961],[-72.1456,6.0401],[-72.0753,6.0918],[-71.9525,6.134],[-71.8476,6.137],[-71.7312,6.192],[-71.6649,6.2004],[-71.5951,6.1649],[-71.5196,6.168],[-71.4539,6.2041],[-71.3744,6.1992],[-71.2234,6.2505],[-70.904,6.1845],[-70.8135,6.2049],[-70.6878,6.1865],[-70.5385,6.202],[-70.4469,6.2421],[-70.1725,6.2479]]]]}},{"type":"Feature","properties":{"dpto":"Putumayo","label_lon":-75.86537,"label_lat":0.43838},"geometry":{"type":"MultiPolygon","coordinates":[[[[-76.5781,1.3164],[-76.5625,1.2187],[-76.5883,1.0756],[-76.5647,1.0356],[-76.4395,0.9692],[-76.326,0.9537],[-76.2234,0.9753],[-76.1946,1.015],[-76.1242,0.9962],[-76.0943,1.0186],[-76.1035,1.0464],[-76.0038,1.0275],[-76.0044,1.0546],[-75.9392,1.0093],[-75.9668,0.9759],[-75.8745,0.8704],[-75.829,0.8771],[-75.8025,0.8603],[-75.7892,0.8169],[-75.7592,0.8387],[-75.6417,0.8596],[-75.6376,0.8347],[-75.5644,0.8183],[-75.5436,0.7604],[-75.4392,0.7276],[-75.3568,0.7435],[-75.2905,0.7131],[-75.2836,0.6438],[-75.238,0.5859],[-75.2662,0.5386],[-75.2321,0.4657],[-75.1705,0.4602],[-75.1319,0.4866],[-75.1255,0.4623],[-75.0367,0.4562],[-75.0027,0.3879],[-75.0217,0.3701],[-75.0049,0.2938],[-75.028,0.2505],[-74.8682,0.1938],[-74.7547,0.1795],[-74.708,0.1325],[-74.7091,0.0719],[-74.7298,0.0702],[-74.7356,0.0471],[-74.6935,0.0285],[-74.7212,0.013],[-74.6819,-0.06],[-74.7009,-0.1032],[-74.6611,-0.0918],[-74.6421,-0.1335],[-74.5596,-0.161],[-74.547,-0.135],[-74.5285,-0.1727],[-74.506,-0.1687],[-74.4807,-0.1191],[-74.4473,-0.1337],[-74.4628,-0.1521],[-74.4478,-0.1666],[-74.3959,-0.1484],[-74.2979,-0.1782],[-74.3152,-0.2423],[-74.2518,-0.2726],[-74.2304,-0.2582],[-74.205,-0.2999],[-74.1486,-0.2846],[-74.114,-0.3142],[-74.0817,-0.3155],[-74.0569,-0.3647],[-73.8837,-0.4306],[-74.4118,-0.5879],[-74.4458,-0.5733],[-74.443,-0.5334],[-74.5087,-0.5101],[-74.5249,-0.4846],[-74.5468,-0.5012],[-74.5814,-0.4225],[-74.6212,-0.3935],[-74.6823,-0.4031],[-74.7054,-0.3608],[-74.7353,-0.3705],[-74.7377,-0.3231],[-74.7717,-0.2623],[-74.8438,-0.1846],[-74.8524,-0.2273],[-74.8974,-0.2485],[-74.9349,-0.2131],[-74.9689,-0.2199],[-75.0052,-0.1712],[-75.1223,-0.0881],[-75.214,-0.0473],[-75.3044,-0.1255],[-75.3517,-0.1005],[-75.4411,-0.0937],[-75.4711,-0.0601],[-75.5835,-0.0134],[-75.64,0.0631],[-75.7253,0.0316],[-75.8464,0.0645],[-75.9652,0.169],[-76.0258,0.2455],[-76.0414,0.2992],[-76.1187,0.3342],[-76.148,0.3234],[-76.1815,0.3795],[-76.3291,0.4171],[-76.3735,0.3792],[-76.4559,0.3824],[-76.4512,0.2507],[-76.5135,0.2521],[-76.6132,0.2052],[-76.6311,0.2445],[-76.6893,0.2725],[-76.8092,0.2753],[-76.7873,0.2313],[-76.8478,0.2564],[-76.902,0.2445],[-76.9556,0.265],[-76.9683,0.291],[-77.0877,0.2979],[-77.1211,0.3581],[-77.1079,0.4475],[-77.1506,0.5297],[-77.1345,0.5822],[-77.1605,0.6245],[-77.0308,0.6615],[-77.0615,0.8673],[-77.0984,0.9246],[-77.1135,1.1858],[-76.8646,1.3037],[-76.7827,1.2982],[-76.7366,1.3939],[-76.7015,1.4238],[-76.6756,1.4271],[-76.6098,1.3835],[-76.5781,1.3164]]]]}},{"type":"Feature","properties":{"dpto":"Amazonas","label_lon":-71.52684,"label_lat":-1.56199},"geometry":{"type":"MultiPolygon","coordinates":[[[[-71.3864,0.1186],[-71.3588,0.1248],[-71.3166,0.0444],[-71.2498,0.0285],[-71.2388,0.0579],[-71.195,0.0577],[-71.1639,-0.0083],[-71.146,-0.0003],[-71.1177,-0.0287],[-71.0676,-0.0375],[-71.0543,-0.07],[-71.0497,-0.0503],[-71.0168,-0.0458],[-70.9615,-0.0871],[-70.9182,-0.1537],[-70.9591,-0.1888],[-70.9014,-0.2762],[-70.9002,-0.3392],[-70.8518,-0.3885],[-70.7964,-0.372],[-70.7636,-0.3253],[-70.6708,-0.3794],[-70.6425,-0.3634],[-70.5843,-0.4179],[-70.5641,-0.4001],[-70.5238,-0.4072],[-70.4609,-0.4854],[-70.4591,-0.5213],[-70.3946,-0.5025],[-70.368,-0.5257],[-70.3277,-0.5189],[-70.364,-0.4922],[-70.3156,-0.4808],[-70.2995,-0.4578],[-70.209,-0.4894],[-70.2078,-0.5119],[-70.2378,-0.5118],[-70.3167,-0.6079],[-70.3121,-0.6235],[-70.2942,-0.5999],[-70.2671,-0.6347],[-70.2584,-0.7815],[-70.2895,-0.8102],[-70.2358,-0.9138],[-70.2646,-0.9767],[-70.2998,-0.999],[-70.2692,-1.054],[-70.2415,-1.0542],[-70.2311,-1.0253],[-70.2006,-1.0168],[-70.2242,-1.0854],[-70.1665,-1.1446],[-70.1509,-1.1493],[-70.1262,-1.0991],[-70.0835,-1.0825],[-70.0939,-1.0519],[-70.1424,-1.0511],[-70.1366,-1.0211],[-70.0767,-0.9861],[-70.0467,-1.0105],[-70.0294,-0.9678],[-70.0,-1.0078],[-69.9591,-0.9837],[-69.9135,-1.0122],[-69.9504,-1.0415],[-69.9509,-1.0923],[-69.9746,-1.1194],[-69.9625,-1.1316],[-69.8766,-1.1106],[-69.8305,-1.0697],[-69.7716,-1.1358],[-69.7428,-1.125],[-69.7642,-1.1168],[-69.7734,-1.0723],[-69.7025,-1.0934],[-69.6598,-1.1548],[-69.6834,-1.1732],[-69.6869,-1.2309],[-69.6597,-1.2622],[-69.6396,-1.2577],[-69.6304,-1.2179],[-69.5906,-1.2019],[-69.4868,-1.252],[-69.4782,-1.2168],[-69.4938,-1.1901],[-69.4747,-1.1816],[-69.4886,-1.1284],[-69.4356,-1.1107],[-69.4114,-1.1425],[-69.405,-1.1749],[-69.4401,-1.2585],[-69.4141,-1.3603],[-69.4676,-1.5259],[-69.5285,-1.9629],[-69.9526,-4.2473],[-70.1528,-4.027],[-70.2284,-3.8563],[-70.3794,-3.8273],[-70.4485,-3.8987],[-70.4993,-3.9106],[-70.5742,-3.8802],[-70.6348,-3.8829],[-70.7091,-3.8352],[-70.0785,-2.7975],[-70.1016,-2.6917],[-70.131,-2.7332],[-70.1696,-2.7492],[-70.1604,-2.695],[-70.1852,-2.6619],[-70.2273,-2.6952],[-70.2268,-2.6219],[-70.2481,-2.5999],[-70.3242,-2.6128],[-70.353,-2.5965],[-70.2948,-2.5615],[-70.3104,-2.5418],[-70.4453,-2.5488],[-70.4724,-2.4944],[-70.5058,-2.5092],[-70.5681,-2.4645],[-70.5848,-2.4656],[-70.5635,-2.513],[-70.575,-2.5245],[-70.628,-2.5174],[-70.6206,-2.4475],[-70.665,-2.4433],[-70.6696,-2.3925],[-70.7284,-2.3726],[-70.7694,-2.3343],[-70.8051,-2.3324],[-70.8668,-2.2692],[-70.9366,-2.2868],[-71.0185,-2.2339],[-71.0011,-2.3246],[-71.0882,-2.3069],[-71.1337,-2.3281],[-71.14,-2.3853],[-71.1677,-2.3753],[-71.1919,-2.4053],[-71.2363,-2.3756],[-71.2766,-2.4142],[-71.2766,-2.3784],[-71.3037,-2.3736],[-71.3884,-2.4305],[-71.3988,-2.3813],[-71.4496,-2.3129],[-71.4952,-2.2995],[-71.4916,-2.374],[-71.5176,-2.3473],[-71.5217,-2.2739],[-71.6514,-2.237],[-71.7194,-2.2465],[-71.7229,-2.1888],[-71.7402,-2.1725],[-71.8117,-2.23],[-71.8382,-2.2218],[-71.8762,-2.3302],[-71.9367,-2.349],[-71.924,-2.4028],[-71.9862,-2.3979],[-72.0508,-2.3647],[-72.1407,-2.4521],[-72.1458,-2.5064],[-72.1735,-2.4705],[-72.2318,-2.4668],[-72.3609,-2.524],[-72.3995,-2.4591],[-72.5482,-2.4597],[-72.6473,-2.4262],[-72.6819,-2.5082],[-72.7362,-2.4439],[-72.7506,-2.4929],[-72.7852,-2.4558],[-72.939,-2.5274],[-72.9246,-2.4933],[-72.9616,-2.4499],[-72.9564,-2.4025],[-73.0077,-2.4202],[-73.0556,-2.3848],[-73.0728,-2.428],[-73.0752,-2.383],[-73.1299,-2.3943],[-73.1196,-2.3602],[-73.1876,-2.2866],[-73.1358,-2.2446],[-73.077,-2.1542],[-73.1128,-2.1408],[-73.1284,-2.0737],[-73.1175,-1.9501],[-73.1584,-1.9332],[-73.1631,-1.8801],[-73.2178,-1.8481],[-73.2369,-1.8081],[-73.2599,-1.8629],[-73.2738,-1.8663],[-73.2732,-1.8432],[-73.3268,-1.8424],[-73.3314,-1.8788],[-73.3839,-1.8433],[-73.4369,-1.8454],[-73.4686,-1.7996],[-73.5528,-1.782],[-73.5286,-1.6902],[-73.4814,-1.6298],[-73.5143,-1.6111],[-73.5172,-1.5407],[-73.5691,-1.4775],[-73.6014,-1.471],[-73.5755,-1.437],[-73.6003,-1.415],[-73.6049,-1.3739],[-73.6332,-1.3715],[-73.6424,-1.3264],[-73.7087,-1.2903],[-73.7537,-1.2936],[-73.7704,-1.2525],[-73.809,-1.2974],[-73.8846,-1.2705],[-73.94,-1.1663],[-73.9861,-1.1742],[-73.9901,-1.1349],[-74.0143,-1.1521],[-74.0414,-1.1422],[-74.0686,-1.0549],[-74.1095,-1.0992],[-74.294,-1.0227],[-74.3032,-0.9603],[-74.3453,-0.9266],[-74.29,-0.9292],[-74.2802,-0.8715],[-74.3996,-0.767],[-74.3737,-0.7116],[-74.4118,-0.5879],[-73.8764,-0.4284],[-73.8107,-0.4408],[-73.7542,-0.4098],[-73.6781,-0.4448],[-73.6792,-0.476],[-73.6285,-0.4693],[-73.5881,-0.5191],[-73.5962,-0.5445],[-73.5714,-0.5319],[-73.5385,-0.5551],[-73.4198,-0.5574],[-73.3852,-0.5448],[-73.3074,-0.5729],[-73.2231,-0.6575],[-73.1638,-0.6358],[-73.0998,-0.6465],[-73.0693,-0.5588],[-73.0312,-0.5538],[-72.977,-0.5864],[-72.9511,-0.646],[-72.8594,-0.6417],[-72.7718,-0.5849],[-72.5907,-0.7295],[-72.4438,-0.5863],[-72.3994,-0.6477],[-72.336,-0.6722],[-72.2893,-0.654],[-72.2611,-0.6165],[-72.192,-0.4401],[-72.0762,-0.3597],[-72.0699,-0.3083],[-72.0468,-0.2847],[-71.89,-0.3062],[-71.8329,-0.2931],[-71.8013,-0.2626],[-71.7621,-0.16],[-71.6279,-0.0514],[-71.6118,-0.0127],[-71.4971,0.1081],[-71.4366,0.1176],[-71.421,0.1603],[-71.3864,0.1186]]]]}},{"type":"Feature","properties":{"dpto":"Guainia","label_lon":-68.80047,"label_lat":2.6667},"geometry":{"type":"MultiPolygon","coordinates":[[[[-67.6878,3.8605],[-67.6387,3.7211],[-67.6093,3.7014],[-67.5384,3.7259],[-67.5078,3.7125],[-67.4657,3.6326],[-67.4189,3.4505],[-67.3393,3.3889],[-67.3237,3.3143],[-67.3819,3.2412],[-67.383,3.1961],[-67.4303,3.1963],[-67.8589,2.7898],[-67.8589,2.7511],[-67.7805,2.7796],[-67.6813,2.7318],[-67.5983,2.7194],[-67.5718,2.6673],[-67.5746,2.5991],[-67.5031,2.604],[-67.2165,2.2996],[-67.2136,2.2655],[-67.2389,2.2199],[-67.2279,2.1569],[-67.18,2.0649],[-67.1333,2.0526],[-67.1269,1.9809],[-67.1494,1.9348],[-67.0646,1.7958],[-67.0536,1.7097],[-66.9543,1.4782],[-66.9306,1.3528],[-66.8839,1.2798],[-66.9046,1.2065],[-66.874,1.1406],[-67.093,1.101],[-67.1035,1.3599],[-67.1838,1.6253],[-67.2323,1.7122],[-67.2928,1.769],[-67.3823,1.9878],[-67.4498,2.0568],[-67.5109,2.0744],[-67.5933,2.0112],[-67.7143,1.8355],[-67.8157,1.732],[-67.9263,1.677],[-68.0157,1.7143],[-68.0751,1.766],[-68.1437,1.8812],[-68.2314,1.9139],[-68.3068,1.7716],[-68.2665,1.7679],[-68.2647,1.7142],[-68.2226,1.7163],[-68.2076,1.6943],[-68.2226,1.6747],[-68.1938,1.6844],[-68.1897,1.648],[-69.4084,1.6901],[-69.5698,1.7272],[-69.6574,1.6906],[-69.7571,1.6985],[-69.8257,1.6601],[-70.0033,1.7047],[-70.1826,1.8354],[-70.189,1.9221],[-70.1371,1.9358],[-70.1147,1.9761],[-70.1228,2.0697],[-70.0606,2.1029],[-70.0053,2.1755],[-70.0191,2.2067],[-69.9978,2.2153],[-70.041,2.2247],[-70.0457,2.2479],[-70.1125,2.221],[-70.1506,2.2269],[-70.1736,2.201],[-70.2987,2.212],[-70.2889,2.1957],[-70.3131,2.1756],[-70.3437,2.2041],[-70.3973,2.2101],[-70.3961,2.2233],[-70.4999,2.1966],[-70.5097,2.236],[-70.6273,2.2676],[-70.7612,2.4998],[-70.8142,2.4896],[-70.8442,2.5031],[-70.8598,2.5424],[-70.5019,2.7465],[-70.487,2.7702],[-70.3504,2.8066],[-70.3469,2.8539],[-70.3014,2.8762],[-70.2795,2.9114],[-70.298,2.9848],[-70.2542,3.0014],[-70.3113,3.0392],[-70.2122,3.1554],[-70.1759,3.1281],[-70.1673,3.1841],[-70.135,3.1574],[-70.12,3.1649],[-70.1506,3.2349],[-70.1091,3.2567],[-70.1719,3.3072],[-70.0348,3.3782],[-70.0088,3.3348],[-69.9829,3.3318],[-69.942,3.3576],[-69.9576,3.4189],[-69.8705,3.3706],[-69.8624,3.4052],[-69.9127,3.5042],[-69.8094,3.4148],[-69.8487,3.4774],[-69.8435,3.512],[-69.8043,3.4616],[-69.7795,3.5193],[-69.727,3.5075],[-69.7432,3.5399],[-69.7253,3.5462],[-69.6965,3.4918],[-69.6642,3.5373],[-69.6406,3.525],[-69.6193,3.5515],[-69.6077,3.5278],[-69.5888,3.612],[-69.5998,3.6348],[-69.5196,3.6412],[-69.4977,3.6174],[-69.4666,3.6739],[-69.4054,3.6199],[-69.2896,3.6633],[-69.3017,3.5952],[-69.2654,3.6124],[-69.2717,3.6766],[-69.2418,3.6614],[-69.2412,3.6308],[-69.2118,3.6584],[-69.1916,3.6364],[-69.1697,3.6415],[-69.1933,3.6017],[-69.1772,3.593],[-69.1115,3.636],[-69.0988,3.6036],[-69.0711,3.6104],[-69.0607,3.5931],[-68.9789,3.6418],[-68.9385,3.6324],[-68.9466,3.6902],[-68.9328,3.6936],[-68.9178,3.6549],[-68.8307,3.6268],[-68.8561,3.68],[-68.7823,3.6762],[-68.7564,3.7316],[-68.655,3.7219],[-68.6746,3.7422],[-68.6544,3.7543],[-68.6342,3.7288],[-68.5789,3.7412],[-68.5575,3.7244],[-68.5633,3.7625],[-68.5114,3.7381],[-68.5086,3.7704],[-68.4377,3.8036],[-68.4389,3.825],[-68.387,3.8045],[-68.425,3.8659],[-68.3495,3.8656],[-68.338,3.9412],[-68.2152,3.9118],[-68.1997,3.9303],[-68.2216,3.9477],[-68.1276,3.9398],[-68.1247,3.8964],[-68.0798,3.9257],[-68.0769,3.8957],[-68.0354,3.9561],[-68.021,3.9284],[-67.9351,3.9026],[-67.8976,3.8603],[-67.7132,3.9877],[-67.6878,3.8605]]]]}},{"type":"Feature","properties":{"dpto":"Guaviare","label_lon":-72.12515,"label_lat":1.89797},"geometry":{"type":"MultiPolygon","coordinates":[[[[-71.2646,2.8375],[-71.0952,2.8455],[-71.0577,2.8268],[-71.0571,2.7777],[-71.0219,2.803],[-70.9654,2.7958],[-70.9493,2.7501],[-70.936,2.8206],[-70.8882,2.7632],[-70.8743,2.7937],[-70.8599,2.7879],[-70.8784,2.7452],[-70.7821,2.7518],[-70.8051,2.7259],[-70.7348,2.7464],[-70.7135,2.7081],[-70.6559,2.7564],[-70.6599,2.8171],[-70.6155,2.7574],[-70.6011,2.7984],[-70.5019,2.7465],[-70.8598,2.5424],[-70.8396,2.4938],[-70.7612,2.4998],[-70.6273,2.2676],[-70.5097,2.236],[-70.4999,2.1966],[-70.3961,2.2233],[-70.3973,2.2101],[-70.3437,2.2041],[-70.3131,2.1756],[-70.2889,2.1957],[-70.2987,2.212],[-70.1736,2.201],[-70.1506,2.2269],[-70.1125,2.221],[-70.0457,2.2479],[-70.041,2.2247],[-69.9978,2.2153],[-70.0237,2.1975],[-70.0053,2.1755],[-70.0686,2.0937],[-70.1228,2.0697],[-70.1165,2.0327],[-70.2133,1.9794],[-70.2992,1.9769],[-70.3389,1.9516],[-70.4219,1.9421],[-70.4381,1.9567],[-70.5101,1.9061],[-70.6703,1.8716],[-70.8963,1.8794],[-70.9539,1.8],[-71.1994,1.6895],[-71.2634,1.6268],[-71.3925,1.6834],[-71.4184,1.5535],[-71.4576,1.5254],[-71.5583,1.2278],[-71.5075,1.0768],[-71.5369,1.0769],[-71.5473,1.1186],[-71.5686,1.1279],[-71.5611,1.0845],[-71.5916,1.0864],[-71.6072,1.0148],[-71.693,0.947],[-71.7645,0.9496],[-71.8111,0.847],[-72.045,0.6366],[-72.0969,0.6264],[-72.0854,0.6483],[-72.1223,0.6693],[-72.139,0.7046],[-72.2393,0.6761],[-72.2451,0.7368],[-72.2734,0.764],[-72.2814,0.741],[-72.3212,0.7741],[-72.3057,0.8416],[-72.3386,0.8469],[-72.3478,0.8123],[-72.3622,0.9019],[-72.406,0.8899],[-72.3974,0.9159],[-72.4372,1.0091],[-72.4845,1.0561],[-72.5312,1.0534],[-72.612,1.0953],[-72.6696,1.1568],[-72.6777,1.14],[-72.7388,1.164],[-72.7428,1.1363],[-72.7659,1.1271],[-72.7924,1.159],[-72.8829,1.1473],[-72.8754,1.131],[-72.8979,1.1103],[-72.8742,1.086],[-72.9105,1.074],[-72.8857,1.045],[-72.8909,1.0081],[-72.9468,0.9968],[-72.9819,0.942],[-73.0137,0.9404],[-73.0188,0.9104],[-73.0966,0.8882],[-73.1508,0.9069],[-73.212,0.9817],[-73.2512,0.9871],[-73.4369,1.1646],[-73.4554,1.2785],[-73.5558,1.3794],[-73.6175,1.4761],[-73.6538,1.4901],[-73.633,2.3166],[-73.648,2.3329],[-73.6163,2.3599],[-73.5771,2.3314],[-73.5488,2.3654],[-73.5333,2.3231],[-73.4935,2.3414],[-73.4785,2.3177],[-73.4647,2.3321],[-73.4768,2.3616],[-73.4566,2.3656],[-73.4474,2.3216],[-73.4122,2.3307],[-73.3955,2.3058],[-73.384,2.3421],[-73.3626,2.3351],[-73.369,2.3103],[-73.3465,2.3275],[-73.2629,2.333],[-73.2537,2.3491],[-73.2808,2.3579],[-73.2307,2.3848],[-73.2237,2.3686],[-73.1822,2.3788],[-73.1776,2.3494],[-73.143,2.3579],[-73.1592,2.3851],[-73.1211,2.3647],[-73.0762,2.4113],[-73.0364,2.4031],[-73.0064,2.4243],[-72.9649,2.3889],[-72.9851,2.4491],[-72.9379,2.4552],[-72.9736,2.4883],[-72.9062,2.5464],[-72.8128,2.5835],[-72.754,2.5503],[-72.7235,2.6028],[-72.6976,2.5957],[-72.6831,2.5518],[-72.6607,2.5967],[-72.5898,2.5912],[-72.6192,2.6358],[-72.561,2.6362],[-72.5304,2.6817],[-72.4543,2.6796],[-72.3644,2.7451],[-72.2912,2.7511],[-72.2757,2.7771],[-72.2053,2.7288],[-72.221,2.8288],[-72.1495,2.8563],[-72.1085,2.8087],[-72.0059,2.7696],[-71.8146,2.8225],[-71.7869,2.8137],[-71.7823,2.8582],[-71.7304,2.8239],[-71.6762,2.8265],[-71.6779,2.8075],[-71.5967,2.8112],[-71.5517,2.8347],[-71.4964,2.8264],[-71.4762,2.8494],[-71.3955,2.8161],[-71.3817,2.8502],[-71.3684,2.8333],[-71.324,2.8776],[-71.2894,2.8382],[-71.2646,2.8375]]]]}},{"type":"Feature","properties":{"dpto":"Vaupes","label_lon":-70.57483,"label_lat":0.61037},"geometry":{"type":"MultiPolygon","coordinates":[[[[-70.113,1.9853],[-70.1371,1.9358],[-70.189,1.9221],[-70.1774,1.8244],[-70.1388,1.815],[-70.0033,1.7047],[-69.8545,1.6671],[-69.853,1.041],[-69.7326,1.0682],[-69.7193,1.0416],[-69.634,1.0545],[-69.5907,1.0353],[-69.51,1.0395],[-69.4656,1.0145],[-69.3682,1.0407],[-69.329,1.033],[-69.2362,0.9824],[-69.2321,0.92],[-69.1992,0.9019],[-69.2096,0.8696],[-69.1733,0.8204],[-69.1934,0.7835],[-69.1847,0.7216],[-69.206,0.6917],[-69.198,0.6657],[-69.1512,0.6349],[-69.1512,0.5973],[-69.2158,0.5982],[-69.2411,0.5653],[-69.293,0.5673],[-69.3149,0.602],[-69.391,0.5845],[-69.4943,0.6848],[-69.5208,0.6849],[-69.6285,0.5878],[-69.6781,0.6145],[-69.7317,0.6021],[-69.749,0.5663],[-69.8164,0.5395],[-70.0003,0.52],[-70.0533,0.4913],[-70.0691,-0.1544],[-70.0212,-0.2562],[-69.9208,-0.3693],[-69.8643,-0.3707],[-69.7253,-0.4862],[-69.6256,-0.5369],[-69.5909,-0.6751],[-69.6329,-0.7777],[-69.5562,-0.878],[-69.5296,-0.9566],[-69.4495,-1.0402],[-69.4333,-1.0887],[-69.4362,-1.1153],[-69.4886,-1.1284],[-69.4747,-1.1816],[-69.4938,-1.1901],[-69.4782,-1.2168],[-69.4868,-1.252],[-69.5906,-1.2019],[-69.6304,-1.2179],[-69.6396,-1.2577],[-69.6713,-1.2587],[-69.6834,-1.1732],[-69.6633,-1.1438],[-69.7319,-1.0725],[-69.7815,-1.0815],[-69.7428,-1.125],[-69.7515,-1.1371],[-69.7861,-1.1306],[-69.8247,-1.0692],[-69.8766,-1.1106],[-69.9625,-1.1316],[-69.9746,-1.1194],[-69.9509,-1.0923],[-69.9504,-1.0415],[-69.9135,-1.0122],[-69.9591,-0.9837],[-70.0,-1.0078],[-70.0294,-0.9678],[-70.0467,-1.0105],[-70.0767,-0.9861],[-70.1366,-1.0211],[-70.1424,-1.0511],[-70.0939,-1.0519],[-70.0835,-1.0825],[-70.1262,-1.0991],[-70.1509,-1.1493],[-70.1665,-1.1446],[-70.2242,-1.0854],[-70.2006,-1.0168],[-70.2311,-1.0253],[-70.2415,-1.0542],[-70.2692,-1.054],[-70.2998,-0.999],[-70.2646,-0.9767],[-70.2358,-0.9138],[-70.2895,-0.8102],[-70.2584,-0.7815],[-70.2671,-0.6347],[-70.2942,-0.5999],[-70.3121,-0.6235],[-70.3167,-0.6079],[-70.2378,-0.5118],[-70.2078,-0.5119],[-70.209,-0.4894],[-70.2995,-0.4578],[-70.3156,-0.4808],[-70.364,-0.4922],[-70.3277,-0.5189],[-70.368,-0.5257],[-70.3946,-0.5025],[-70.4591,-0.5213],[-70.4609,-0.4854],[-70.5238,-0.4072],[-70.5641,-0.4001],[-70.5843,-0.4179],[-70.6425,-0.3634],[-70.6708,-0.3794],[-70.7636,-0.3253],[-70.7964,-0.372],[-70.8518,-0.3885],[-70.9002,-0.3392],[-70.9014,-0.2762],[-70.9591,-0.1888],[-70.9182,-0.1537],[-70.9615,-0.0871],[-71.0168,-0.0458],[-71.0497,-0.0503],[-71.0543,-0.07],[-71.0676,-0.0375],[-71.1177,-0.0287],[-71.146,-0.0003],[-71.1639,-0.0083],[-71.195,0.0577],[-71.2388,0.0579],[-71.2498,0.0285],[-71.3166,0.0444],[-71.3588,0.1248],[-71.3761,0.1116],[-71.4124,0.1586],[-71.4274,0.1592],[-71.4366,0.1176],[-71.4861,0.1181],[-71.4879,0.1485],[-71.5444,0.0927],[-71.5479,0.1401],[-71.6026,0.1438],[-71.5807,0.1801],[-71.651,0.1561],[-71.6303,0.1959],[-71.6776,0.1833],[-71.7341,0.2477],[-71.7226,0.2881],[-71.7601,0.2617],[-71.7699,0.2935],[-71.8033,0.3098],[-71.7855,0.3311],[-71.8258,0.3365],[-71.8177,0.3151],[-71.8592,0.3152],[-71.8587,0.3643],[-71.8391,0.3712],[-71.8679,0.4048],[-71.9314,0.4247],[-71.9256,0.4414],[-71.9458,0.4554],[-71.9297,0.4807],[-71.9597,0.5467],[-71.9729,0.5398],[-71.9602,0.5109],[-72.0023,0.529],[-72.0168,0.5672],[-71.9977,0.6006],[-72.0422,0.6389],[-71.8111,0.847],[-71.7645,0.9496],[-71.693,0.947],[-71.6072,1.0148],[-71.5916,1.0864],[-71.5611,1.0845],[-71.5686,1.1279],[-71.5473,1.1186],[-71.5369,1.0769],[-71.5075,1.0768],[-71.5583,1.2278],[-71.4576,1.5254],[-71.4184,1.5535],[-71.3925,1.6834],[-71.2634,1.6268],[-71.1994,1.6895],[-70.9539,1.8],[-70.8963,1.8794],[-70.7672,1.8731],[-70.7539,1.8864],[-70.702,1.8677],[-70.5545,1.8919],[-70.4686,1.9256],[-70.4381,1.9567],[-70.4219,1.9421],[-70.3389,1.9516],[-70.2992,1.9769],[-70.2133,1.9794],[-70.1274,2.0328],[-70.1136,2.0327],[-70.113,1.9853]]]]}},{"type":"Feature","properties":{"dpto":"Vichada","label_lon":-69.43349,"label_lat":4.66988},"geometry":{"type":"MultiPolygon","coordinates":[[[[-67.7969,6.2795],[-67.5911,6.2561],[-67.5035,6.1957],[-67.5259,6.1259],[-67.5086,6.0582],[-67.459,5.9852],[-67.6226,5.8057],[-67.6507,5.6441],[-67.6357,5.5227],[-67.6518,5.4777],[-67.6771,5.4374],[-67.8465,5.3278],[-67.8915,5.246],[-67.8626,5.1742],[-67.8793,5.1177],[-67.8354,5.0124],[-67.8808,4.8341],[-67.8744,4.7226],[-67.9164,4.5506],[-67.8172,4.3821],[-67.8159,4.1828],[-67.7138,3.9975],[-67.7322,3.9653],[-67.7823,3.9493],[-67.9057,3.8597],[-67.9351,3.9026],[-68.0123,3.9237],[-68.0354,3.9561],[-68.0769,3.8957],[-68.0798,3.9257],[-68.1247,3.8964],[-68.1276,3.9398],[-68.2216,3.9477],[-68.1997,3.9303],[-68.2152,3.9118],[-68.338,3.9412],[-68.3495,3.8656],[-68.425,3.8659],[-68.387,3.8045],[-68.4389,3.825],[-68.4377,3.8036],[-68.5086,3.7704],[-68.5114,3.7381],[-68.5633,3.7625],[-68.5575,3.7244],[-68.5789,3.7412],[-68.6342,3.7288],[-68.6544,3.7543],[-68.6746,3.7422],[-68.655,3.7219],[-68.7564,3.7316],[-68.7823,3.6762],[-68.8561,3.68],[-68.8307,3.6268],[-68.9178,3.6549],[-68.9328,3.6936],[-68.9466,3.6902],[-68.9339,3.6359],[-68.9789,3.6418],[-69.0532,3.593],[-69.0711,3.6104],[-69.0988,3.6036],[-69.1115,3.636],[-69.1772,3.593],[-69.1933,3.6017],[-69.1697,3.6415],[-69.1916,3.6364],[-69.2118,3.6584],[-69.2412,3.6308],[-69.2418,3.6614],[-69.2717,3.6766],[-69.2654,3.6124],[-69.3017,3.5952],[-69.2873,3.6529],[-69.3057,3.6675],[-69.3968,3.6199],[-69.4666,3.6739],[-69.4977,3.6174],[-69.5196,3.6412],[-69.5801,3.642],[-69.5998,3.6348],[-69.5888,3.612],[-69.6077,3.5278],[-69.6193,3.5515],[-69.6406,3.525],[-69.6642,3.5373],[-69.6965,3.4918],[-69.7253,3.5462],[-69.7432,3.5399],[-69.727,3.5075],[-69.7795,3.5193],[-69.8043,3.4616],[-69.8435,3.512],[-69.8487,3.4774],[-69.8094,3.4148],[-69.9127,3.5042],[-69.8624,3.4052],[-69.8774,3.3666],[-69.9576,3.4189],[-69.942,3.3576],[-69.9829,3.3318],[-70.0088,3.3348],[-70.0348,3.3782],[-70.1719,3.3072],[-70.1091,3.2567],[-70.1506,3.2349],[-70.12,3.1649],[-70.135,3.1574],[-70.1673,3.1841],[-70.1759,3.1281],[-70.2122,3.1554],[-70.3113,3.0392],[-70.2542,3.0014],[-70.298,2.9848],[-70.2795,2.9114],[-70.3014,2.8762],[-70.3469,2.8539],[-70.3504,2.8066],[-70.4213,2.7941],[-70.5163,2.7466],[-70.6011,2.7984],[-70.6155,2.7574],[-70.6599,2.8171],[-70.6559,2.7564],[-70.7135,2.7081],[-70.7348,2.7464],[-70.8051,2.7259],[-70.7821,2.7518],[-70.8784,2.7452],[-70.8599,2.7879],[-70.8743,2.7937],[-70.8882,2.7632],[-70.936,2.8206],[-70.9493,2.7501],[-70.9654,2.7958],[-71.0219,2.803],[-71.0571,2.7777],[-71.0577,2.8268],[-71.0952,2.8455],[-71.0854,4.8631],[-71.0237,4.9339],[-70.9633,5.0734],[-70.8676,5.1053],[-70.8359,5.1491],[-70.7397,5.2082],[-70.6971,5.2681],[-70.6925,5.3218],[-70.5012,5.4683],[-70.3911,5.5285],[-70.2395,5.5446],[-70.1415,5.5881],[-70.1162,5.6336],[-70.0505,5.6541],[-70.0471,5.6946],[-69.8461,6.0091],[-69.623,5.9885],[-69.4806,6.022],[-69.4518,6.0404],[-69.4471,6.0689],[-69.3654,6.1041],[-69.329,6.0514],[-69.2466,6.0615],[-69.1366,6.1846],[-68.9913,6.173],[-68.9699,6.1481],[-68.876,6.1552],[-68.7042,6.1048],[-68.6068,6.1269],[-68.556,6.1065],[-68.4713,6.1483],[-68.3174,6.1494],[-68.1255,6.2087],[-68.0038,6.1747],[-67.9606,6.1953],[-67.937,6.235],[-67.8235,6.2952],[-67.7969,6.2795]]]]}},{"type":"Feature","properties":{"dpto":"Archipielago De San Andres Providencia Y Santa Catalina","label_lon":-81.72221,"label_lat":12.55214},"geometry":{"type":"MultiPolygon","coordinates":[[[[-81.713,12.5946],[-81.6902,12.5835],[-81.7108,12.5754],[-81.7333,12.483],[-81.7358,12.5577],[-81.713,12.5946]]],[[[-81.3702,13.3858],[-81.3529,13.3596],[-81.3923,13.3235],[-81.3956,13.3615],[-81.3702,13.3858]]]]}}]}
